,ZIP,State,City,CountyName,12/31/2015,12/31/2019,4/30/2022
13,94109,CA,San Francisco,San Francisco County,1197337.0,1243968.0,1267952.0
21,90250,CA,Hawthorne,Los Angeles County,517432.0,672395.0,885199.0
39,94565,CA,Pittsburg,Contra Costa County,503225.0,606525.0,825960.0
43,90046,CA,Los Angeles,Los Angeles County,1267039.0,1474294.0,1768788.0
87,94501,CA,Alameda,Alameda County,860008.0,1063497.0,1441005.0
93,94110,CA,San Francisco,San Francisco County,1439791.0,1611352.0,1697890.0
98,90034,CA,Los Angeles,Los Angeles County,1006847.0,1365873.0,1669363.0
102,95630,CA,Folsom,Sacramento County,472339.0,580734.0,807167.0
111,90805,CA,Long Beach,Los Angeles County,378323.0,491348.0,679717.0
113,90650,CA,Norwalk,Los Angeles County,406253.0,499980.0,689221.0
114,90044,CA,Los Angeles,Los Angeles County,338753.0,469508.0,651260.0
116,92683,CA,Westminster,Orange County,593557.0,708542.0,996610.0
127,91709,CA,Chino Hills,San Bernardino County,590090.0,689533.0,946615.0
134,94558,CA,Napa,Napa County,613468.0,714863.0,941515.0
135,90026,CA,Los Angeles,Los Angeles County,727081.0,959079.0,1214980.0
138,91910,CA,Chula Vista,San Diego County,427141.0,528984.0,809831.0
141,93722,CA,Fresno,Fresno County,209250.0,266359.0,383899.0
153,94533,CA,Fairfield,Solano County,312193.0,410691.0,566607.0
163,95608,CA,Carmichael,Sacramento County,342437.0,426838.0,604482.0
167,92677,CA,Laguna Niguel,Orange County,796492.0,883441.0,1329441.0
172,90066,CA,Los Angeles,Los Angeles County,1177364.0,1489834.0,1803152.0
179,92336,CA,Fontana,San Bernardino County,397292.0,472779.0,692327.0
187,95823,CA,Sacramento,Sacramento County,220513.0,303443.0,456129.0
188,92345,CA,Hesperia,San Bernardino County,204769.0,273519.0,411572.0
196,95747,CA,Roseville,Placer County,420254.0,514161.0,723268.0
199,92804,CA,Anaheim,Orange County,507940.0,613544.0,886172.0
202,92126,CA,San Diego,San Diego County,487590.0,614146.0,968114.0
208,92503,CA,Riverside,Riverside County,332061.0,417939.0,623471.0
209,91911,CA,Chula Vista,San Diego County,388833.0,485912.0,744784.0
219,92101,CA,San Diego,San Diego County,562421.0,620347.0,809225.0
220,90019,CA,Los Angeles,Los Angeles County,899261.0,1146685.0,1463261.0
229,94536,CA,Fremont,Alameda County,838496.0,1058874.0,1552999.0
235,92592,CA,Temecula,Riverside County,419483.0,501187.0,772977.0
241,90280,CA,South Gate,Los Angeles County,364019.0,465866.0,613596.0
248,90201,CA,Bell,Los Angeles County,359982.0,461723.0,612206.0
249,91730,CA,Rancho Cucamonga,San Bernardino County,378662.0,457516.0,654503.0
253,90004,CA,Los Angeles,Los Angeles County,1070228.0,1328261.0,1650873.0
255,92109,CA,San Diego,San Diego County,811294.0,1009045.0,1453160.0
269,91342,CA,Los Angeles,Los Angeles County,431915.0,542752.0,757114.0
270,90706,CA,Bellflower,Los Angeles County,427351.0,531578.0,717882.0
271,92335,CA,Fontana,San Bernardino County,281348.0,367032.0,536384.0
272,95123,CA,San Jose,Santa Clara County,789959.0,979979.0,1464851.0
273,92021,CA,El Cajon,San Diego County,411618.0,503851.0,767825.0
279,93065,CA,Simi Valley,Ventura County,521033.0,602031.0,848487.0
289,92627,CA,Costa Mesa,Orange County,765961.0,891785.0,1264227.0
296,90025,CA,Los Angeles,Los Angeles County,853070.0,1041515.0,1202887.0
304,95035,CA,Milpitas,Santa Clara County,855520.0,1073804.0,1509947.0
305,91710,CA,Chino,San Bernardino County,429532.0,510041.0,727312.0
306,90011,CA,Los Angeles,Los Angeles County,323676.0,448867.0,590998.0
312,94544,CA,Hayward,Alameda County,517364.0,666759.0,948861.0
331,90027,CA,Los Angeles,Los Angeles County,1237525.0,1500968.0,1919562.0
336,93727,CA,Fresno,Fresno County,220905.0,281089.0,404246.0
337,94568,CA,Dublin,Alameda County,863196.0,993664.0,1492272.0
339,95051,CA,Santa Clara,Santa Clara County,1113426.0,1406927.0,1925811.0
340,91335,CA,Los Angeles,Los Angeles County,452267.0,570255.0,814095.0
341,95687,CA,Vacaville,Solano County,361802.0,447303.0,611781.0
345,90731,CA,Los Angeles,Los Angeles County,508082.0,626286.0,839092.0
356,93550,CA,Palmdale,Los Angeles County,208583.0,295130.0,436526.0
358,93536,CA,Lancaster,Los Angeles County,283619.0,372221.0,541024.0
369,92630,CA,Lake Forest,Orange County,651185.0,738537.0,1084847.0
373,94509,CA,Antioch,Contra Costa County,364766.0,516163.0,690950.0
376,95758,CA,Elk Grove,Sacramento County,325797.0,421784.0,626788.0
377,93306,CA,Bakersfield,Kern County,187565.0,221176.0,318586.0
384,93307,CA,Bakersfield,Kern County,151030.0,190662.0,278889.0
387,93535,CA,Lancaster,Los Angeles County,192381.0,277418.0,424866.0
389,94122,CA,San Francisco,San Francisco County,1236094.0,1498653.0,1830039.0
393,93274,CA,Tulare,Tulare County,180676.0,222899.0,321605.0
407,93257,CA,Porterville,Tulare County,163706.0,209682.0,292191.0
414,93230,CA,Hanford,Kings County,197730.0,246667.0,347476.0
431,93309,CA,Bakersfield,Kern County,191226.0,224082.0,323330.0
439,94541,CA,Hayward,Alameda County,518668.0,661047.0,915420.0
440,94538,CA,Fremont,Alameda County,783588.0,986645.0,1445609.0
441,95076,CA,Watsonville,Santa Cruz County,495756.0,619390.0,888502.0
445,90802,CA,Long Beach,Los Angeles County,314448.0,416052.0,525521.0
451,94513,CA,Brentwood,Contra Costa County,558988.0,688370.0,985721.0
458,90631,CA,La Habra,Orange County,533074.0,626121.0,890479.0
461,92104,CA,San Diego,San Diego County,520751.0,634489.0,943690.0
467,92647,CA,Huntington Beach,Orange County,687865.0,790639.0,1122733.0
476,92154,CA,San Diego,San Diego County,381149.0,480405.0,737438.0
483,92618,CA,Irvine,Orange County,875908.0,956689.0,1334071.0
486,92115,CA,San Diego,San Diego County,436254.0,555705.0,852834.0
491,95355,CA,Modesto,Stanislaus County,272299.0,350317.0,496566.0
500,94587,CA,Union City,Alameda County,730133.0,929811.0,1461392.0
506,95670,CA,Rancho Cordova,Sacramento County,277671.0,363448.0,514013.0
510,92646,CA,Huntington Beach,Orange County,773404.0,905387.0,1315567.0
518,92620,CA,Irvine,Orange County,894682.0,999529.0,1421179.0
534,95014,CA,Cupertino,Santa Clara County,1930489.0,2245303.0,3164529.0
539,92376,CA,Rialto,San Bernardino County,273792.0,357758.0,526824.0
541,95112,CA,San Jose,Santa Clara County,684082.0,903414.0,1157575.0
552,94080,CA,South San Francisco,San Mateo County,847811.0,1088150.0,1387884.0
553,92648,CA,Huntington Beach,Orange County,925965.0,1057027.0,1457154.0
554,92130,CA,San Diego,San Diego County,1045281.0,1251830.0,1992930.0
557,92105,CA,San Diego,San Diego County,345600.0,456032.0,709560.0
563,92122,CA,San Diego,San Diego County,606278.0,775816.0,1149458.0
573,95648,CA,Lincoln,Placer County,403896.0,504012.0,696560.0
581,92563,CA,Murrieta,Riverside County,376759.0,456018.0,709725.0
588,90036,CA,Los Angeles,Los Angeles County,1451959.0,1820609.0,2136159.0
589,94112,CA,San Francisco,San Francisco County,939970.0,1162274.0,1381654.0
597,94087,CA,Sunnyvale,Santa Clara County,1714497.0,2020248.0,2862844.0
603,95125,CA,San Jose,Santa Clara County,1135909.0,1375477.0,1925533.0
605,90640,CA,Montebello,Los Angeles County,451269.0,555863.0,725195.0
621,92562,CA,Murrieta,Riverside County,375315.0,454315.0,696127.0
641,92117,CA,San Diego,San Diego County,559812.0,704751.0,1061490.0
646,94086,CA,Sunnyvale,Santa Clara County,1249375.0,1578241.0,2102163.0
652,94806,CA,San Pablo,Contra Costa County,363010.0,491558.0,663144.0
658,92128,CA,San Diego,San Diego County,548419.0,653516.0,1008677.0
662,94591,CA,Vallejo,Solano County,375169.0,476659.0,664997.0
663,91801,CA,Alhambra,Los Angeles County,552344.0,676395.0,869379.0
668,91331,CA,Los Angeles,Los Angeles County,390027.0,503475.0,706604.0
681,92805,CA,Anaheim,Orange County,475103.0,578967.0,835628.0
684,90042,CA,Los Angeles,Los Angeles County,616826.0,802084.0,1124365.0
690,92020,CA,El Cajon,San Diego County,454209.0,551969.0,834447.0
691,94553,CA,Martinez,Contra Costa County,504938.0,606992.0,819100.0
692,92201,CA,Indio,Riverside County,240658.0,304333.0,475402.0
696,94015,CA,Daly City,San Mateo County,855602.0,1086727.0,1362555.0
699,92399,CA,Yucaipa,San Bernardino County,318036.0,388576.0,551602.0
700,92882,CA,Corona,Riverside County,430548.0,516625.0,771625.0
739,93308,CA,Oildale,Kern County,188641.0,222827.0,322062.0
740,95008,CA,Campbell,Santa Clara County,1117647.0,1356345.0,1922757.0
747,92656,CA,Aliso Viejo,Orange County,553454.0,631761.0,920879.0
748,92056,CA,Oceanside,San Diego County,451030.0,551119.0,854690.0
756,92704,CA,Santa Ana,Orange County,474958.0,587100.0,822712.0
761,92071,CA,Santee,San Diego County,426715.0,519237.0,803400.0
764,92626,CA,Costa Mesa,Orange County,734589.0,852529.0,1263078.0
774,95350,CA,Modesto,Stanislaus County,222692.0,303156.0,437179.0
776,95624,CA,Elk Grove,Sacramento County,357866.0,455936.0,679373.0
786,92509,CA,Riverside,Riverside County,319478.0,412301.0,612406.0
791,92024,CA,Encinitas,San Diego County,940388.0,1178881.0,1836963.0
792,92553,CA,Moreno Valley,Riverside County,247298.0,330426.0,513586.0
809,92880,CA,Eastvale,Riverside County,504925.0,595782.0,911992.0
811,92253,CA,La Quinta,Riverside County,436676.0,480099.0,754863.0
812,90006,CA,Los Angeles,Los Angeles County,550447.0,719178.0,851599.0
829,92223,CA,Beaumont,Riverside County,287041.0,356220.0,546893.0
840,95020,CA,Gilroy,Santa Clara County,678459.0,791919.0,1132557.0
856,90255,CA,Huntington Park,Los Angeles County,353307.0,456279.0,603639.0
858,90028,CA,Los Angeles,Los Angeles County,781511.0,892149.0,1033407.0
861,94115,CA,San Francisco,San Francisco County,1629299.0,1713716.0,1847180.0
862,92234,CA,Cathedral City,Riverside County,261762.0,329379.0,509427.0
863,93003,CA,Ventura,Ventura County,519318.0,609509.0,892751.0
866,91786,CA,Upland,San Bernardino County,405111.0,485392.0,689044.0
890,93312,CA,Bakersfield,Kern County,276818.0,306203.0,435974.0
904,90024,CA,Los Angeles,Los Angeles County,1191941.0,1398240.0,1600608.0
909,92057,CA,Oceanside,San Diego County,421688.0,520030.0,798252.0
959,92708,CA,Fountain Valley,Orange County,724080.0,846803.0,1223698.0
962,93063,CA,Simi Valley,Ventura County,523794.0,603318.0,851571.0
965,92103,CA,San Diego,San Diego County,660317.0,764919.0,1087499.0
977,93277,CA,Visalia,Tulare County,199047.0,240275.0,350786.0
1000,93720,CA,Fresno,Fresno County,286321.0,349449.0,480897.0
1001,91402,CA,Los Angeles,Los Angeles County,383086.0,502650.0,693470.0
1010,94117,CA,San Francisco,San Francisco County,1575852.0,1735258.0,1866609.0
1021,91977,CA,Spring Valley,San Diego County,386247.0,480554.0,747947.0
1024,92507,CA,Riverside,Riverside County,315034.0,401055.0,598930.0
1032,92037,CA,San Diego,San Diego County,1461228.0,1720089.0,2453885.0
1033,91367,CA,Los Angeles,Los Angeles County,672205.0,803635.0,1124068.0
1036,94102,CA,San Francisco,San Francisco County,921287.0,949724.0,952085.0
1038,92346,CA,Highland,San Bernardino County,292043.0,362113.0,527542.0
1041,95207,CA,Stockton,San Joaquin County,209568.0,294579.0,435564.0
1045,95831,CA,Sacramento,Sacramento County,382658.0,482107.0,682468.0
1047,96003,CA,Redding,Shasta County,,310696.0,415916.0
1051,93436,CA,Lompoc,Santa Barbara County,304477.0,368330.0,536926.0
1056,94121,CA,San Francisco,San Francisco County,1467111.0,1750692.0,2027968.0
1066,95828,CA,Florin,Sacramento County,238474.0,323424.0,482412.0
1067,95616,CA,Davis,Yolo County,609569.0,704881.0,916081.0
1068,91406,CA,Los Angeles,Los Angeles County,499139.0,626416.0,889071.0
1069,93291,CA,Visalia,Tulare County,232975.0,277466.0,401472.0
1074,90049,CA,Los Angeles,Los Angeles County,2475163.0,2766849.0,3350413.0
1078,91766,CA,Pomona,Los Angeles County,363284.0,448266.0,633614.0
1081,91706,CA,Baldwin Park,Los Angeles County,383870.0,473975.0,648819.0
1084,92260,CA,Palm Desert,Riverside County,342950.0,386901.0,606305.0
1087,90020,CA,Los Angeles,Los Angeles County,549416.0,676080.0,768688.0
1093,91744,CA,La Puente,Los Angeles County,395894.0,485998.0,672348.0
1110,92801,CA,Anaheim,Orange County,475517.0,577442.0,844085.0
1119,90277,CA,Redondo Beach,Los Angeles County,1059587.0,1288912.0,1633357.0
1123,92780,CA,Tustin,Orange County,612078.0,704248.0,1000329.0
1124,94611,CA,Oakland,Alameda County,1152964.0,1376724.0,1870968.0
1125,92407,CA,San Bernardino,San Bernardino County,268645.0,346917.0,512037.0
1126,92404,CA,San Bernardino,San Bernardino County,222626.0,301139.0,452797.0
1142,91762,CA,Ontario,San Bernardino County,358595.0,453015.0,654022.0
1153,95628,CA,Fair Oaks,Sacramento County,373786.0,464538.0,651897.0
1154,95060,CA,Santa Cruz,Santa Cruz County,855580.0,1017397.0,1559882.0
1159,94550,CA,Livermore,Alameda County,777554.0,892130.0,1350990.0
1176,91405,CA,Los Angeles,Los Angeles County,471803.0,608283.0,849543.0
1186,92078,CA,San Marcos,San Diego County,551675.0,653330.0,1018752.0
1187,95610,CA,Citrus Heights,Sacramento County,288957.0,379599.0,541181.0
1188,92324,CA,Colton,San Bernardino County,242889.0,322904.0,471166.0
1189,90813,CA,Long Beach,Los Angeles County,325726.0,441803.0,606699.0
1201,91761,CA,Ontario,San Bernardino County,381061.0,463785.0,674133.0
1203,90803,CA,Long Beach,Los Angeles County,873525.0,1010313.0,1327801.0
1205,90503,CA,Torrance,Los Angeles County,777635.0,921604.0,1241340.0
1212,94577,CA,San Leandro,Alameda County,550036.0,687736.0,960977.0
1220,92026,CA,Escondido,San Diego County,437872.0,529108.0,816325.0
1222,91601,CA,Los Angeles,Los Angeles County,600238.0,765501.0,1004371.0
1242,95206,CA,Stockton,San Joaquin County,203262.0,299130.0,450441.0
1246,94118,CA,San Francisco,San Francisco County,2038947.0,2268783.0,2538612.0
1248,94546,CA,Castro Valley,Alameda County,676342.0,825885.0,1241719.0
1249,91702,CA,Azusa,Los Angeles County,393922.0,481616.0,661363.0
1260,95678,CA,Roseville,Placer County,322904.0,410166.0,576059.0
1261,92692,CA,Mission Viejo,Orange County,684082.0,756863.0,1122575.0
1273,94403,CA,San Mateo,San Mateo County,1324491.0,1590570.0,2020562.0
1279,95621,CA,Citrus Heights,Sacramento County,250670.0,339936.0,486689.0
1291,92114,CA,San Diego,San Diego County,362303.0,468025.0,724092.0
1307,90005,CA,Los Angeles,Los Angeles County,726702.0,885112.0,1025494.0
1309,90047,CA,Los Angeles,Los Angeles County,372538.0,530823.0,738790.0
1313,91770,CA,Rosemead,Los Angeles County,509625.0,617651.0,799673.0
1317,91343,CA,Los Angeles,Los Angeles County,488874.0,618974.0,892597.0
1318,90247,CA,Gardena,Los Angeles County,427777.0,548858.0,733548.0
1320,90003,CA,Los Angeles,Los Angeles County,307782.0,430013.0,563578.0
1321,93906,CA,Salinas,Monterey County,384501.0,474790.0,674741.0
1328,90630,CA,Cypress,Orange County,608380.0,706352.0,1015888.0
1346,93446,CA,Paso Robles,San Luis Obispo County,437885.0,518139.0,721605.0
1348,90016,CA,Los Angeles,Los Angeles County,547161.0,827637.0,1106911.0
1353,91942,CA,La Mesa,San Diego County,429939.0,532934.0,833355.0
1368,90018,CA,Los Angeles,Los Angeles County,528887.0,791517.0,998785.0
1372,90043,CA,Los Angeles,Los Angeles County,496153.0,709671.0,990547.0
1375,92028,CA,Fallbrook,San Diego County,501532.0,592527.0,890726.0
1378,92129,CA,San Diego,San Diego County,683840.0,818323.0,1364472.0
1385,95822,CA,Sacramento,Sacramento County,243376.0,326138.0,466248.0
1386,90037,CA,Los Angeles,Los Angeles County,365993.0,519575.0,693099.0
1391,94103,CA,San Francisco,San Francisco County,1045345.0,1077196.0,1048213.0
1392,91304,CA,Los Angeles,Los Angeles County,559425.0,672956.0,942262.0
1393,94590,CA,Vallejo,Solano County,275619.0,394773.0,548230.0
1397,94114,CA,San Francisco,San Francisco County,1836399.0,2038344.0,2211152.0
1402,93551,CA,Palmdale,Los Angeles County,330395.0,414328.0,599158.0
1414,92211,CA,Palm Desert,Riverside County,330256.0,365638.0,552470.0
1421,92870,CA,Placentia,Orange County,628812.0,718175.0,1040076.0
1426,90022,CA,East Los Angeles,Los Angeles County,380823.0,484917.0,634122.0
1431,95124,CA,San Jose,Santa Clara County,1102181.0,1317479.0,1946788.0
1439,90045,CA,Los Angeles,Los Angeles County,984427.0,1222863.0,1547027.0
1451,94539,CA,Fremont,Alameda County,1397982.0,1639771.0,2219927.0
1453,94107,CA,San Francisco,San Francisco County,1189718.0,1268797.0,1294455.0
1462,95336,CA,Manteca,San Joaquin County,304041.0,391874.0,587554.0
1468,92530,CA,Lake Elsinore,Riverside County,289044.0,368001.0,568105.0
1469,92111,CA,San Diego,San Diego County,484119.0,616628.0,942102.0
1471,94010,CA,Burlingame,San Mateo County,2552439.0,2935544.0,3632624.0
1477,91950,CA,National City,San Diego County,336933.0,439836.0,673072.0
1486,93033,CA,Oxnard,Ventura County,430655.0,523988.0,666940.0
1491,92027,CA,Escondido,San Diego County,403576.0,495850.0,770033.0
1494,92392,CA,Victorville,San Bernardino County,213530.0,282431.0,431009.0
1497,94566,CA,Pleasanton,Alameda County,1092116.0,1286062.0,1925480.0
1501,91344,CA,Los Angeles,Los Angeles County,556539.0,674181.0,970205.0
1502,95762,CA,El Dorado Hills,El Dorado County,552012.0,650805.0,969349.0
1504,90278,CA,Redondo Beach,Los Angeles County,866365.0,1056330.0,1412245.0
1512,92691,CA,Mission Viejo,Orange County,653608.0,747133.0,1109907.0
1517,93311,CA,Bakersfield,Kern County,283798.0,315440.0,448595.0
1528,94928,CA,Rohnert Park,Sonoma County,476944.0,563527.0,715700.0
1529,92886,CA,Yorba Linda,Orange County,767033.0,848003.0,1235314.0
1534,92116,CA,San Diego,San Diego County,525283.0,644708.0,969712.0
1535,94605,CA,Oakland,Alameda County,513453.0,681666.0,935866.0
1541,92545,CA,Hemet,Riverside County,225981.0,294104.0,454490.0
1542,92504,CA,Riverside,Riverside County,306669.0,392979.0,589051.0
1544,93010,CA,Camarillo,Ventura County,566500.0,643982.0,888907.0
1550,95037,CA,Morgan Hill,Santa Clara County,842250.0,991877.0,1430364.0
1553,90703,CA,Cerritos,Los Angeles County,663163.0,745465.0,985567.0
1561,90057,CA,Los Angeles,Los Angeles County,415711.0,550229.0,614757.0
1584,94066,CA,San Bruno,San Mateo County,922341.0,1171370.0,1493618.0
1595,92009,CA,Carlsbad,San Diego County,811773.0,955372.0,1552315.0
1597,95376,CA,Tracy,San Joaquin County,350291.0,450065.0,681888.0
1603,92672,CA,San Clemente,Orange County,971655.0,1123423.0,1683100.0
1607,91745,CA,Hacienda Heights,Los Angeles County,569803.0,661782.0,892155.0
1611,94601,CA,Oakland,Alameda County,419497.0,585165.0,784400.0
1613,92054,CA,Oceanside,San Diego County,559586.0,708541.0,1092981.0
1623,94610,CA,Oakland,Alameda County,1041700.0,1354003.0,1741611.0
1629,93117,CA,Goleta,Santa Barbara County,796591.0,874692.0,1298697.0
1632,94025,CA,Menlo Park,San Mateo County,2208020.0,2548234.0,3071156.0
1639,92688,CA,Rancho Santa Margarita,Orange County,579116.0,654935.0,968814.0
1652,90660,CA,Pico Rivera,Los Angeles County,403242.0,500871.0,677830.0
1674,95023,CA,Hollister,San Benito County,495636.0,615684.0,858692.0
1681,92833,CA,Fullerton,Orange County,542543.0,632424.0,909675.0
1682,92064,CA,Poway,San Diego County,636564.0,753458.0,1181361.0
1690,92127,CA,San Diego,San Diego County,816289.0,969047.0,1588334.0
1691,95825,CA,Arden-Arcade,Sacramento County,240156.0,327231.0,455754.0
1717,91765,CA,Diamond Bar,Los Angeles County,634415.0,696954.0,944359.0
1724,92544,CA,Hemet,Riverside County,218545.0,292481.0,459946.0
1731,93711,CA,Fresno,Fresno County,302721.0,368721.0,502435.0
1735,94521,CA,Concord,Contra Costa County,633907.0,625827.0,793826.0
1756,92660,CA,Newport Beach,Orange County,1826918.0,2018171.0,2881717.0
1758,92040,CA,Lakeside,San Diego County,431871.0,518090.0,803397.0
1769,90275,CA,Rancho Palos Verdes,Los Angeles County,1195888.0,1355826.0,1877827.0
1772,95240,CA,Lodi,San Joaquin County,255746.0,336673.0,492404.0
1780,91605,CA,Los Angeles,Los Angeles County,455584.0,603100.0,842464.0
1781,95136,CA,San Jose,Santa Clara County,819663.0,999479.0,1481653.0
1799,93304,CA,Bakersfield,Kern County,148113.0,182915.0,269115.0
1810,90745,CA,Carson,Los Angeles County,422325.0,542107.0,724622.0
1812,95826,CA,Rosemont,Sacramento County,259911.0,355503.0,514485.0
1824,91764,CA,Ontario,San Bernardino County,336026.0,423628.0,610733.0
1825,95403,CA,Santa Rosa,Sonoma County,492439.0,587580.0,734324.0
1829,93611,CA,Clovis,Fresno County,282708.0,343845.0,482647.0
1831,95821,CA,Arden-Arcade,Sacramento County,286226.0,372793.0,521536.0
1840,92584,CA,Menifee,Riverside County,336951.0,411577.0,636718.0
1845,90804,CA,Long Beach,Los Angeles County,417396.0,518997.0,700091.0
1851,95667,CA,Placerville,El Dorado County,335857.0,399088.0,566648.0
1853,95127,CA,San Jose,Santa Clara County,645561.0,810427.0,1137699.0
1854,91016,CA,Monrovia,Los Angeles County,610972.0,721470.0,939887.0
1855,95476,CA,Sonoma,Sonoma County,728209.0,823970.0,1046719.0
1856,95111,CA,San Jose,Santa Clara County,610907.0,783230.0,1095649.0
1861,95062,CA,Santa Cruz,Santa Cruz County,783339.0,952230.0,1498100.0
1869,95126,CA,San Jose,Santa Clara County,857438.0,1087351.0,1390126.0
1880,94901,CA,San Rafael,Marin County,999045.0,1188686.0,1591712.0
1883,94606,CA,Oakland,Alameda County,523395.0,696214.0,873919.0
1888,91913,CA,Chula Vista,San Diego County,488761.0,576249.0,896371.0
1891,90815,CA,Long Beach,Los Angeles County,606622.0,715931.0,974362.0
1892,92506,CA,Riverside,Riverside County,384845.0,470629.0,695148.0
1902,93455,CA,Santa Maria,Santa Barbara County,394728.0,455407.0,653732.0
1924,95926,CA,Chico,Butte County,277706.0,383681.0,457063.0
1935,94040,CA,Mountain View,Santa Clara County,2025485.0,2402331.0,3148162.0
1957,94608,CA,Oakland,Alameda County,587683.0,749022.0,919782.0
1971,92025,CA,Escondido,San Diego County,450363.0,551574.0,849271.0
1974,93534,CA,Lancaster,Los Angeles County,184492.0,268510.0,404455.0
1985,92395,CA,Victorville,San Bernardino County,193133.0,254911.0,388610.0
1991,92069,CA,San Marcos,San Diego County,478560.0,572438.0,878181.0
1996,91320,CA,Thousand Oaks,Ventura County,647091.0,719240.0,1002910.0
1997,90029,CA,Los Angeles,Los Angeles County,669936.0,925069.0,1178055.0
2007,94404,CA,Foster City,San Mateo County,1300812.0,1519668.0,1922088.0
2009,95928,CA,Chico,Butte County,292878.0,402507.0,478353.0
2016,93313,CA,Bakersfield,Kern County,231187.0,264262.0,384982.0
2017,90065,CA,Los Angeles,Los Angeles County,688730.0,877040.0,1198654.0
2018,91606,CA,Los Angeles,Los Angeles County,511796.0,658432.0,891111.0
2026,92557,CA,Moreno Valley,Riverside County,286696.0,367328.0,563494.0
2027,90291,CA,Los Angeles,Los Angeles County,1869644.0,2056805.0,2032973.0
2044,91423,CA,Los Angeles,Los Angeles County,954860.0,1158953.0,1583331.0
2048,90501,CA,Torrance,Los Angeles County,586217.0,706437.0,927760.0
2050,95404,CA,Santa Rosa,Sonoma County,574615.0,669196.0,830217.0
2057,92243,CA,El Centro,Imperial County,183958.0,226522.0,324147.0
2058,94116,CA,San Francisco,San Francisco County,1218263.0,1497956.0,1794635.0
2061,94804,CA,Richmond,Contra Costa County,455240.0,637634.0,822033.0
2069,93619,CA,Clovis,Fresno County,371447.0,439534.0,618567.0
2077,94560,CA,Newark,Alameda County,726769.0,934058.0,1354601.0
2078,95050,CA,Santa Clara,Santa Clara County,974837.0,1242333.0,1690757.0
2089,92084,CA,Vista,San Diego County,469474.0,575713.0,887579.0
2093,90723,CA,Paramount,Los Angeles County,346785.0,448906.0,600579.0
2100,90292,CA,Los Angeles,Los Angeles County,1020801.0,1182220.0,1400191.0
2103,90069,CA,West Hollywood,Los Angeles County,983645.0,1128055.0,1308034.0
2104,91732,CA,El Monte,Los Angeles County,425832.0,506911.0,677795.0
2107,90262,CA,Lynwood,Los Angeles County,351270.0,455651.0,602130.0
2108,94551,CA,Livermore,Alameda County,634026.0,746638.0,1096222.0
2112,92308,CA,Apple Valley,San Bernardino County,201469.0,259340.0,388013.0
2126,94582,CA,San Ramon,Contra Costa County,1079672.0,1378224.0,2028967.0
2130,95757,CA,Elk Grove,Sacramento County,404932.0,506882.0,762146.0
2138,95973,CA,Chico,Butte County,315210.0,441478.0,518168.0
2141,90241,CA,Downey,Los Angeles County,492423.0,605733.0,797796.0
2144,92019,CA,El Cajon,San Diego County,472830.0,563195.0,859863.0
2160,92307,CA,Apple Valley,San Bernardino County,221969.0,285542.0,423719.0
2161,90405,CA,Santa Monica,Los Angeles County,1472496.0,1798746.0,2111717.0
2164,90740,CA,Seal Beach,Orange County,824972.0,936821.0,1210963.0
2166,94578,CA,San Leandro,Alameda County,515665.0,662727.0,944482.0
2192,93030,CA,Oxnard,Ventura County,449100.0,542162.0,766627.0
2193,94044,CA,Pacifica,San Mateo County,873285.0,1096424.0,1429929.0
2198,90638,CA,La Mirada,Los Angeles County,510641.0,606024.0,830197.0
2199,90008,CA,Los Angeles,Los Angeles County,647138.0,941993.0,1313656.0
2205,91401,CA,Los Angeles,Los Angeles County,664851.0,829445.0,1144521.0
2209,93726,CA,Fresno,Fresno County,163516.0,219881.0,320842.0
2212,92262,CA,Palm Springs,Riverside County,385944.0,465197.0,758744.0
2215,92821,CA,Brea,Orange County,644421.0,727713.0,1043469.0
2230,92840,CA,Garden Grove,Orange County,513363.0,633647.0,907309.0
2235,93940,CA,Monterey,Monterey County,703434.0,818002.0,1122034.0
2238,94123,CA,San Francisco,San Francisco County,2638305.0,2606869.0,2756183.0
2241,94523,CA,Pleasant Hill,Contra Costa County,747973.0,791873.0,1059378.0
2248,90266,CA,Manhattan Beach,Los Angeles County,1778268.0,2487264.0,3131169.0
2253,92505,CA,Riverside,Riverside County,332570.0,420008.0,619685.0
2254,95691,CA,West Sacramento,Yolo County,337083.0,407880.0,581391.0
2260,91360,CA,Thousand Oaks,Ventura County,627618.0,720249.0,1002481.0
2262,91205,CA,Glendale,Los Angeles County,554522.0,706847.0,941981.0
2268,91767,CA,Pomona,Los Angeles County,365933.0,462043.0,645952.0
2272,92705,CA,North Tustin,Orange County,857241.0,974688.0,1431943.0
2279,91604,CA,Los Angeles,Los Angeles County,1193693.0,1389840.0,1794275.0
2286,92649,CA,Huntington Beach,Orange County,803818.0,905614.0,1287587.0
2288,92373,CA,Redlands,San Bernardino County,432139.0,509882.0,702175.0
2301,94303,CA,Palo Alto,Santa Clara County,1705098.0,2024497.0,2556388.0
2303,95991,CA,Yuba City,Sutter County,205448.0,288629.0,404538.0
2312,90505,CA,Torrance,Los Angeles County,857606.0,1018308.0,1390943.0
2313,95843,CA,Sacramento,Sacramento County,284846.0,372848.0,542671.0
2322,90808,CA,Long Beach,Los Angeles County,591363.0,689295.0,945770.0
2327,90403,CA,Santa Monica,Los Angeles County,1273198.0,1461797.0,1607801.0
2334,92058,CA,Oceanside,San Diego County,407937.0,494725.0,782543.0
2335,95833,CA,Sacramento,Sacramento County,249110.0,333191.0,485555.0
2348,91387,CA,Santa Clarita,Los Angeles County,479974.0,573469.0,795148.0
2370,95129,CA,San Jose,Santa Clara County,1574014.0,1820119.0,2629412.0
2403,92102,CA,San Diego,San Diego County,370158.0,485932.0,733181.0
2421,95307,CA,Ceres,Stanislaus County,237018.0,317588.0,454686.0
2428,92612,CA,Irvine,Orange County,672561.0,745118.0,991942.0
2431,93612,CA,Clovis,Fresno County,190193.0,250807.0,362804.0
2447,94583,CA,San Ramon,Contra Costa County,1073079.0,1282241.0,1965954.0
2454,90744,CA,Los Angeles,Los Angeles County,375278.0,477666.0,660986.0
2456,94534,CA,Fairfield,Solano County,463101.0,549248.0,749851.0
2497,93635,CA,Los Banos,Merced County,242006.0,327158.0,478200.0
2498,94954,CA,Petaluma,Sonoma County,569990.0,663208.0,871096.0
2528,92543,CA,Hemet,Riverside County,165215.0,235321.0,369684.0
2536,95835,CA,Sacramento,Sacramento County,345269.0,428527.0,623257.0
2539,91748,CA,Rowland Heights,Los Angeles County,601666.0,676013.0,897216.0
2544,91306,CA,Los Angeles,Los Angeles County,472254.0,594283.0,833964.0
2548,92591,CA,Temecula,Riverside County,401404.0,480286.0,740493.0
2550,95765,CA,Rocklin,Placer County,436398.0,533892.0,753665.0
2561,92374,CA,Redlands,San Bernardino County,310748.0,388494.0,551200.0
2569,90035,CA,Los Angeles,Los Angeles County,1235868.0,1601973.0,1926571.0
2581,91607,CA,Los Angeles,Los Angeles County,761783.0,952748.0,1347015.0
2586,92570,CA,Perris,Riverside County,276498.0,361231.0,547524.0
2613,92240,CA,Desert Hot Springs,Riverside County,167497.0,236055.0,376334.0
2621,91311,CA,Los Angeles,Los Angeles County,549254.0,662838.0,930048.0
2625,90007,CA,Los Angeles,Los Angeles County,492830.0,728441.0,919943.0
2626,94531,CA,Antioch,Contra Costa County,431231.0,576980.0,815490.0
2632,94561,CA,Oakley,Contra Costa County,435528.0,580123.0,832945.0
2640,95128,CA,San Jose,Santa Clara County,943052.0,1188542.0,1627510.0
2641,92879,CA,Corona,Riverside County,380704.0,462542.0,693515.0
2644,90012,CA,Los Angeles,Los Angeles County,478056.0,582118.0,657753.0
2652,92703,CA,Santa Ana,Orange County,444235.0,557603.0,796166.0
2654,95695,CA,Woodland,Yolo County,315585.0,391822.0,537812.0
2659,95134,CA,San Jose,Santa Clara County,809420.0,1007583.0,1269860.0
2660,94061,CA,Redwood City,San Mateo County,1403251.0,1672950.0,2144130.0
2663,93012,CA,Camarillo,Ventura County,560757.0,625732.0,869138.0
2666,91362,CA,Thousand Oaks,Ventura County,767379.0,866077.0,1187645.0
2670,95401,CA,Santa Rosa,Sonoma County,439072.0,527218.0,675114.0
2673,93292,CA,Visalia,Tulare County,208881.0,252255.0,368964.0
2679,95688,CA,Vacaville,Solano County,433811.0,515984.0,703461.0
2680,95380,CA,Turlock,Stanislaus County,239966.0,312926.0,433691.0
2683,92410,CA,San Bernardino,San Bernardino County,202322.0,278930.0,419674.0
2699,91701,CA,Rancho Cucamonga,San Bernardino County,477243.0,567949.0,811947.0
2707,94401,CA,San Mateo,San Mateo County,932423.0,1186346.0,1397048.0
2730,90048,CA,Los Angeles,Los Angeles County,1488111.0,1830521.0,2144768.0
2736,92707,CA,Santa Ana,Orange County,441956.0,555063.0,778505.0
2745,94043,CA,Mountain View,Santa Clara County,1223644.0,1497873.0,1798471.0
2751,92107,CA,San Diego,San Diego County,799599.0,993481.0,1527896.0
2764,93401,CA,San Luis Obispo,San Luis Obispo County,674449.0,754318.0,991160.0
2769,94131,CA,San Francisco,San Francisco County,1479490.0,1745702.0,2024816.0
2774,93555,CA,Ridgecrest,Kern County,164054.0,199410.0,264771.0
2776,92571,CA,Perris,Riverside County,256738.0,336962.0,520316.0
2777,94014,CA,Daly City,San Mateo County,806064.0,989855.0,1215405.0
2788,90620,CA,Buena Park,Orange County,522601.0,620266.0,898410.0
2791,96001,CA,Redding,Shasta County,240018.0,294837.0,392509.0
2798,93458,CA,Santa Maria,Santa Barbara County,306705.0,371952.0,529482.0
2800,91505,CA,Burbank,Los Angeles County,667204.0,827811.0,1120562.0
2804,92867,CA,Orange,Orange County,674412.0,762384.0,1092954.0
2811,90068,CA,Los Angeles,Los Angeles County,1248951.0,1468592.0,1883165.0
2813,91107,CA,Pasadena,Los Angeles County,817993.0,968298.0,1342025.0
2830,91750,CA,La Verne,Los Angeles County,584094.0,665155.0,906158.0
2833,90032,CA,Los Angeles,Los Angeles County,440480.0,637494.0,866547.0
2839,93036,CA,Oxnard,Ventura County,448648.0,538963.0,767652.0
2848,92264,CA,Palm Springs,Riverside County,344736.0,397884.0,630692.0
2867,91206,CA,Glendale,Los Angeles County,699746.0,885563.0,1199060.0
2875,94520,CA,Concord,Contra Costa County,,398396.0,502925.0
2876,90807,CA,Long Beach,Los Angeles County,564613.0,673105.0,927507.0
2896,92806,CA,Anaheim,Orange County,555436.0,660289.0,955341.0
2916,92203,CA,Indio,Riverside County,327088.0,375335.0,568520.0
2924,92831,CA,Fullerton,Orange County,589059.0,676319.0,977044.0
2932,90033,CA,Los Angeles,Los Angeles County,367562.0,520848.0,685313.0
2934,95116,CA,San Jose,Santa Clara County,562897.0,729420.0,1014589.0
2935,90063,CA,East Los Angeles,Los Angeles County,363896.0,504902.0,683750.0
2940,93905,CA,Salinas,Monterey County,341764.0,437643.0,625265.0
2942,92113,CA,San Diego,San Diego County,313992.0,431061.0,654326.0
2947,92065,CA,Ramona,San Diego County,449851.0,538811.0,803839.0
2949,90001,CA,Florence-Graham,Los Angeles County,299803.0,417707.0,537033.0
2950,95209,CA,Stockton,San Joaquin County,267998.0,357025.0,531367.0
2959,90806,CA,Long Beach,Los Angeles County,442731.0,568997.0,760617.0
2963,95337,CA,Manteca,San Joaquin County,362092.0,463259.0,714768.0
2964,93001,CA,Ventura,Ventura County,606874.0,721567.0,1037320.0
2968,94952,CA,Petaluma,Sonoma County,729966.0,853238.0,1124134.0
2970,95662,CA,Orangevale,Sacramento County,327951.0,415245.0,586222.0
2975,95901,CA,Marysville,Yuba County,185709.0,270501.0,391953.0
2981,95661,CA,Roseville,Placer County,408685.0,511415.0,723386.0
2985,94133,CA,San Francisco,San Francisco County,1461042.0,1455627.0,1524002.0
2988,95382,CA,Turlock,Stanislaus County,294535.0,367503.0,509343.0
2990,91790,CA,West Covina,Los Angeles County,462966.0,557310.0,771872.0
3000,92629,CA,Dana Point,Orange County,928865.0,1056741.0,1564384.0
3002,95301,CA,Atwater,Merced County,205914.0,275196.0,421460.0
3024,91789,CA,Walnut,Los Angeles County,726675.0,767676.0,1036360.0
3025,91104,CA,Pasadena,Los Angeles County,723381.0,879744.0,1232379.0
3026,95482,CA,Ukiah,Mendocino County,355725.0,392487.0,518826.0
3029,90220,CA,Compton,Los Angeles County,316840.0,425245.0,575952.0
3030,95361,CA,Oakdale,Stanislaus County,327103.0,402124.0,563625.0
3032,93245,CA,Lemoore,Kings County,217058.0,261729.0,363862.0
3034,94941,CA,Mill Valley,Marin County,1512323.0,1630042.0,2203102.0
3035,94526,CA,Danville,Contra Costa County,1098963.0,1240428.0,1900653.0
3045,95820,CA,Sacramento,Sacramento County,205936.0,302277.0,441351.0
3052,92270,CA,Rancho Mirage,Riverside County,505342.0,550511.0,866678.0
3066,95351,CA,Modesto,Stanislaus County,174647.0,256493.0,372294.0
3067,95407,CA,Santa Rosa,Sonoma County,435774.0,527804.0,665514.0
3073,96080,CA,Red Bluff,Tehama County,209421.0,259552.0,314344.0
3089,91350,CA,Santa Clarita,Los Angeles County,487204.0,576934.0,807768.0
3095,94588,CA,Pleasanton,Alameda County,937449.0,1093598.0,1625778.0
3097,96002,CA,Redding,Shasta County,228601.0,282100.0,379945.0
3099,90017,CA,Los Angeles,Los Angeles County,659088.0,679259.0,710925.0
3103,90038,CA,Los Angeles,Los Angeles County,848811.0,1048216.0,1225283.0
3121,90242,CA,Downey,Los Angeles County,437299.0,547408.0,723703.0
3123,95370,CA,Sonora,Tuolumne County,,,424814.0
3132,90230,CA,Culver City,Los Angeles County,780595.0,1033773.0,1275657.0
3133,95945,CA,Grass Valley,Nevada County,317309.0,383409.0,510684.0
3139,91326,CA,Los Angeles,Los Angeles County,721242.0,829989.0,1192002.0
3145,91711,CA,Claremont,Los Angeles County,614537.0,695187.0,935915.0
3148,95834,CA,Sacramento,Sacramento County,312889.0,404119.0,585889.0
3150,92807,CA,Anaheim,Orange County,669456.0,754260.0,1088409.0
3177,91773,CA,San Dimas,Los Angeles County,550418.0,636660.0,873294.0
3181,91001,CA,Altadena,Los Angeles County,724450.0,902527.0,1276039.0
3182,91355,CA,Santa Clarita,Los Angeles County,502536.0,587010.0,795763.0
3183,94070,CA,San Carlos,San Mateo County,1676105.0,1965673.0,2614074.0
3188,95409,CA,Santa Rosa,Sonoma County,597350.0,672735.0,791765.0
3190,91754,CA,Monterey Park,Los Angeles County,569554.0,694269.0,904138.0
3209,90301,CA,Inglewood,Los Angeles County,341672.0,531834.0,709673.0
3217,95120,CA,San Jose,Santa Clara County,1400822.0,1563127.0,2320300.0
3225,92108,CA,San Diego,San Diego County,351293.0,438096.0,636859.0
3226,95966,CA,Oroville,Butte County,179379.0,259189.0,333353.0
3266,93705,CA,Fresno,Fresno County,153741.0,213564.0,310342.0
3270,93101,CA,Santa Barbara,Santa Barbara County,864728.0,945363.0,1413420.0
3276,91316,CA,Los Angeles,Los Angeles County,612824.0,731304.0,993482.0
3291,91941,CA,La Mesa,San Diego County,535229.0,640796.0,982209.0
3297,92651,CA,Laguna Beach,Orange County,2146461.0,2326245.0,3249432.0
3301,90064,CA,Los Angeles,Los Angeles County,1340823.0,1676550.0,1953402.0
3302,92220,CA,Banning,Riverside County,208159.0,270160.0,407854.0
3320,93561,CA,Tehachapi,Kern County,236975.0,286161.0,407933.0
3321,92637,CA,Laguna Woods,Orange County,324304.0,413610.0,415693.0
3333,94903,CA,San Rafael,Marin County,879481.0,1032730.0,1439750.0
3347,90504,CA,Torrance,Los Angeles County,604048.0,739985.0,979488.0
3353,93638,CA,Madera,Madera County,168149.0,232228.0,330546.0
3369,92131,CA,San Diego,San Diego County,758750.0,888530.0,1446563.0
3382,93422,CA,Atascadero,San Luis Obispo County,474814.0,556382.0,779775.0
3391,91780,CA,Temple City,Los Angeles County,670123.0,757464.0,978008.0
3399,95682,CA,Shingle Springs,El Dorado County,408442.0,491431.0,709551.0
3408,93702,CA,Fresno,Fresno County,118554.0,168512.0,249980.0
3415,94602,CA,Oakland,Alameda County,796354.0,1011182.0,1430113.0
3418,92110,CA,San Diego,San Diego County,541171.0,693571.0,1034399.0
3431,95122,CA,San Jose,Santa Clara County,578035.0,739739.0,1028449.0
3452,90604,CA,Whittier,Los Angeles County,465408.0,566031.0,784655.0
3456,92701,CA,Santa Ana,Orange County,392419.0,498336.0,695598.0
3463,91739,CA,Rancho Cucamonga,San Bernardino County,571240.0,665442.0,935049.0
3469,90002,CA,Los Angeles,Los Angeles County,295485.0,413242.0,544161.0
3485,90039,CA,Los Angeles,Los Angeles County,860161.0,1060651.0,1401933.0
3494,95340,CA,Merced,Merced County,204785.0,270550.0,413133.0
3501,95993,CA,Yuba City,Sutter County,261351.0,359237.0,488856.0
3528,91776,CA,San Gabriel,Los Angeles County,568709.0,688226.0,887138.0
3535,93420,CA,Arroyo Grande,San Luis Obispo County,650564.0,719623.0,971940.0
3536,95070,CA,Saratoga,Santa Clara County,2523092.0,2828314.0,4053450.0
3563,91325,CA,Los Angeles,Los Angeles County,593466.0,723825.0,1046768.0
3574,92802,CA,Anaheim,Orange County,505863.0,618818.0,887706.0
3601,93955,CA,Seaside,Monterey County,450467.0,572072.0,786061.0
3602,95204,CA,Stockton,San Joaquin County,187210.0,269722.0,402831.0
3604,93454,CA,Santa Maria,Santa Barbara County,317057.0,384086.0,556366.0
3605,94063,CA,Redwood City,San Mateo County,969457.0,1222550.0,1517184.0
3614,91403,CA,Los Angeles,Los Angeles County,993118.0,1208680.0,1641047.0
3624,92123,CA,San Diego,San Diego County,495867.0,624173.0,958441.0
3633,92120,CA,San Diego,San Diego County,540185.0,660917.0,1035730.0
3639,95210,CA,Stockton,San Joaquin County,195140.0,280949.0,416919.0
3640,93021,CA,Moorpark,Ventura County,603125.0,680655.0,941847.0
3661,91356,CA,Los Angeles,Los Angeles County,850514.0,1005500.0,1433749.0
3663,93637,CA,Madera,Madera County,204819.0,268965.0,383644.0
3674,91352,CA,Los Angeles,Los Angeles County,447113.0,582515.0,820975.0
3681,92675,CA,San Juan Capistrano,Orange County,728160.0,804746.0,1195354.0
3687,94306,CA,Palo Alto,Santa Clara County,2713546.0,2902190.0,3763859.0
3697,95132,CA,San Jose,Santa Clara County,878150.0,1144831.0,1664609.0
3701,94510,CA,Benicia,Solano County,544601.0,644017.0,878971.0
3705,92869,CA,Orange,Orange County,670802.0,765252.0,1113960.0
3719,93710,CA,Fresno,Fresno County,219065.0,277536.0,401713.0
3734,92311,CA,Barstow,San Bernardino County,107590.0,151984.0,243755.0
3744,92008,CA,Carlsbad,San Diego County,774310.0,937870.0,1538087.0
3753,95838,CA,Sacramento,Sacramento County,191112.0,283209.0,415362.0
3774,94607,CA,Oakland,Alameda County,528483.0,685093.0,810141.0
3778,95842,CA,Sacramento,Sacramento County,219343.0,310424.0,448857.0
3795,95356,CA,Modesto,Stanislaus County,295277.0,374442.0,528384.0
3796,92083,CA,Vista,San Diego County,403148.0,503719.0,776984.0
3797,90221,CA,Compton,Los Angeles County,324762.0,438066.0,584129.0
3802,93657,CA,Sanger,Fresno County,216518.0,275663.0,394187.0
3812,90031,CA,Los Angeles,Los Angeles County,474726.0,668075.0,893245.0
3813,91007,CA,Arcadia,Los Angeles County,996612.0,1044401.0,1328255.0
3830,95816,CA,Sacramento,Sacramento County,489551.0,613637.0,766167.0
3834,95677,CA,Rocklin,Placer County,383574.0,482316.0,685173.0
3836,95348,CA,Merced,Merced County,216535.0,280318.0,423921.0
3857,95660,CA,Sacramento,Sacramento County,188746.0,274931.0,412406.0
3874,94555,CA,Fremont,Alameda County,874497.0,1104591.0,1567857.0
3885,95148,CA,San Jose,Santa Clara County,845691.0,1040667.0,1542996.0
3896,94134,CA,San Francisco,San Francisco County,878976.0,1104239.0,1234399.0
3897,92694,CA,Ladera Ranch,Orange County,744999.0,812946.0,1207716.0
3917,92586,CA,Menifee,Riverside County,211374.0,280030.0,412194.0
3922,94530,CA,El Cerrito,Contra Costa County,,,1162770.0
3926,94549,CA,Lafayette,Contra Costa County,1237176.0,1423713.0,1909162.0
3930,90023,CA,Los Angeles,Los Angeles County,344859.0,465783.0,618177.0
3931,95603,CA,Auburn,Placer County,380225.0,479763.0,652005.0
3944,94002,CA,Belmont,San Mateo County,1605673.0,1841644.0,2494675.0
3945,92595,CA,Wildomar,Riverside County,346887.0,425822.0,659037.0
3953,90621,CA,Buena Park,Orange County,511111.0,597729.0,852864.0
3959,91106,CA,Pasadena,Los Angeles County,638840.0,743468.0,959722.0
3969,95118,CA,San Jose,Santa Clara County,948766.0,1163942.0,1668229.0
3985,92124,CA,San Diego,San Diego County,549735.0,667197.0,1035642.0
3993,94596,CA,Walnut Creek,Contra Costa County,860945.0,908584.0,1233060.0
3998,95205,CA,Stockton,San Joaquin County,138808.0,226691.0,340618.0
4007,93215,CA,Delano,Kern County,184338.0,223370.0,304100.0
4017,92843,CA,Garden Grove,Orange County,506834.0,621463.0,903847.0
4029,95472,CA,Sebastopol,Sonoma County,743952.0,865407.0,1171397.0
4039,91722,CA,Covina,Los Angeles County,421803.0,508181.0,711584.0
4050,94559,CA,Napa,Napa County,546809.0,634663.0,855588.0
4073,93704,CA,Fresno,Fresno County,203393.0,262630.0,373340.0
4075,91321,CA,Santa Clarita,Los Angeles County,418347.0,515122.0,706229.0
4076,92602,CA,Irvine,Orange County,984439.0,1088770.0,1524112.0
4079,90274,CA,Palos Verdes Estates,Los Angeles County,1792544.0,1934950.0,2571148.0
4080,93305,CA,Bakersfield,Kern County,133818.0,168570.0,239004.0
4087,90302,CA,Inglewood,Los Angeles County,378524.0,585131.0,768451.0
4092,93035,CA,Oxnard,Ventura County,562194.0,643457.0,906454.0
4095,92555,CA,Moreno Valley,Riverside County,315935.0,399748.0,611076.0
4110,94124,CA,San Francisco,San Francisco County,790230.0,1003868.0,1100162.0
4125,94597,CA,Walnut Creek,Contra Costa County,764618.0,861341.0,1136505.0
4129,92663,CA,Newport Beach,Orange County,1727851.0,1962675.0,2738884.0
4131,94132,CA,San Francisco,San Francisco County,1092007.0,1345627.0,1561795.0
4137,91791,CA,West Covina,Los Angeles County,555148.0,641713.0,872549.0
4147,95032,CA,Los Gatos,Santa Clara County,1683807.0,1884934.0,2715585.0
4150,90601,CA,Whittier,Los Angeles County,471993.0,581374.0,772135.0
4152,94598,CA,Walnut Creek,Contra Costa County,493068.0,584481.0,734652.0
4168,92614,CA,Irvine,Orange County,663189.0,757934.0,1023800.0
4169,91763,CA,Montclair,San Bernardino County,364669.0,452481.0,655065.0
4195,90015,CA,Los Angeles,Los Angeles County,644968.0,688127.0,746471.0
4207,93004,CA,Ventura,Ventura County,512284.0,595360.0,832960.0
4218,95219,CA,Stockton,San Joaquin County,321585.0,399102.0,585148.0
4220,93105,CA,Santa Barbara,Santa Barbara County,1153270.0,1231086.0,1924341.0
4224,90260,CA,Lawndale,Los Angeles County,478374.0,625850.0,827723.0
4244,91354,CA,Santa Clarita,Los Angeles County,522247.0,605843.0,829680.0
4246,91101,CA,Pasadena,Los Angeles County,525013.0,626612.0,780779.0
4251,95117,CA,San Jose,Santa Clara County,1042307.0,1321528.0,1838441.0
4256,93706,CA,Fresno,Fresno County,121686.0,172390.0,259800.0
4270,95818,CA,Sacramento,Sacramento County,485406.0,607751.0,779092.0
4293,92782,CA,Tustin,Orange County,741836.0,826360.0,1164308.0
4297,93933,CA,Marina,Monterey County,496929.0,633687.0,857481.0
4306,92081,CA,Vista,San Diego County,480356.0,575710.0,904549.0
4318,91006,CA,Arcadia,Los Angeles County,947425.0,1000918.0,1290298.0
4322,90712,CA,Lakewood,Los Angeles County,494384.0,591453.0,817649.0
4368,90605,CA,Whittier,Los Angeles County,441544.0,530812.0,732180.0
4373,95492,CA,Windsor,Sonoma County,544319.0,639219.0,806163.0
4374,92284,CA,Yucca Valley,San Bernardino County,163144.0,232090.0,369939.0
4379,92653,CA,Laguna Hills,Orange County,708617.0,786981.0,1166302.0
4381,92883,CA,Corona,Riverside County,442189.0,515285.0,769900.0
4387,90404,CA,Santa Monica,Los Angeles County,926575.0,1139446.0,1261180.0
4395,94609,CA,Oakland,Alameda County,852153.0,1096670.0,1419809.0
4401,91752,CA,Eastvale,Riverside County,442518.0,541209.0,802907.0
4412,91214,CA,Glendale,Los Angeles County,739167.0,896374.0,1248827.0
4420,95003,CA,Aptos,Santa Cruz County,836459.0,970014.0,1530370.0
4455,94402,CA,San Mateo,San Mateo County,1700696.0,2007621.0,2645768.0
4458,95632,CA,Galt,Sacramento County,295556.0,393079.0,554743.0
4464,91030,CA,South Pasadena,Los Angeles County,1019321.0,1234147.0,1597194.0
4469,92139,CA,San Diego,San Diego County,348972.0,457483.0,719164.0
4483,94545,CA,Hayward,Alameda County,543024.0,707673.0,1028369.0
4512,92277,CA,Twentynine Palms,San Bernardino County,103333.0,151522.0,263190.0
4517,92673,CA,San Clemente,Orange County,924951.0,1021859.0,1591100.0
4533,91803,CA,Alhambra,Los Angeles County,555353.0,692195.0,914093.0
4542,95242,CA,Lodi,San Joaquin County,328896.0,410279.0,586421.0
4553,93552,CA,Palmdale,Los Angeles County,240366.0,326468.0,488423.0
4571,94062,CA,Redwood City,San Mateo County,1957812.0,2230575.0,2940262.0
4572,92679,CA,Coto de Caza,Orange County,883216.0,963440.0,1456970.0
4577,91364,CA,Los Angeles,Los Angeles County,808847.0,958683.0,1385467.0
4579,95618,CA,Davis,Yolo County,591025.0,665378.0,870101.0
4599,91351,CA,Santa Clarita,Los Angeles County,420217.0,514941.0,715131.0
4603,94585,CA,Suisun City,Solano County,322663.0,419496.0,580714.0
4606,92236,CA,Coachella,Riverside County,207075.0,264543.0,392790.0
4612,93703,CA,Fresno,Fresno County,145786.0,200413.0,291767.0
4630,94518,CA,Concord,Contra Costa County,,645045.0,888486.0
4644,90059,CA,Los Angeles,Los Angeles County,299454.0,414650.0,556815.0
4648,94595,CA,Walnut Creek,Contra Costa County,1013543.0,1136033.0,1424329.0
4649,90041,CA,Los Angeles,Los Angeles County,744829.0,927822.0,1335476.0
4681,93901,CA,Salinas,Monterey County,452772.0,558492.0,759133.0
4709,90254,CA,Hermosa Beach,Los Angeles County,1607179.0,1801551.0,2266394.0
4720,91733,CA,South El Monte,Los Angeles County,418790.0,508117.0,676022.0
4721,95824,CA,Sacramento,Sacramento County,176906.0,260748.0,382657.0
4722,96007,CA,Anderson,Shasta County,202692.0,252096.0,343329.0
4738,94603,CA,Oakland,Alameda County,337453.0,496977.0,653979.0
4752,90810,CA,Long Beach,Los Angeles County,390629.0,499698.0,684104.0
4758,91042,CA,Los Angeles,Los Angeles County,517535.0,662597.0,915740.0
4762,92231,CA,Calexico,Imperial County,186922.0,234271.0,339995.0
4767,95829,CA,Sacramento,Sacramento County,343465.0,433484.0,635560.0
4809,92583,CA,San Jacinto,Riverside County,208298.0,282856.0,440850.0
4827,93314,CA,Rosedale,Kern County,359614.0,390948.0,556129.0
4840,92706,CA,Santa Ana,Orange County,553180.0,665928.0,963292.0
4845,91602,CA,Los Angeles,Los Angeles County,768227.0,944852.0,1211907.0
4869,95501,CA,Eureka,Humboldt County,246812.0,292656.0,415538.0
4880,92508,CA,Riverside,Riverside County,423437.0,510190.0,767147.0
4906,94619,CA,Oakland,Alameda County,664742.0,817372.0,1152996.0
4923,92301,CA,Adelanto,San Bernardino County,174136.0,241255.0,371899.0
4934,95503,CA,Eureka,Humboldt County,269134.0,319764.0,473134.0
4941,94801,CA,Richmond,Contra Costa County,427155.0,617730.0,821939.0
4952,92604,CA,Irvine,Orange County,724528.0,822610.0,1166554.0
4959,95864,CA,Arden-Arcade,Sacramento County,461287.0,548763.0,758774.0
4980,94612,CA,Oakland,Alameda County,551993.0,694077.0,785334.0
4990,94589,CA,Vallejo,Solano County,298603.0,409724.0,567276.0
5002,95405,CA,Santa Rosa,Sonoma County,527095.0,615369.0,760395.0
5007,93654,CA,Reedley,Fresno County,194815.0,246021.0,341915.0
5022,91932,CA,Imperial Beach,San Diego County,443549.0,606816.0,882365.0
5029,91303,CA,Los Angeles,Los Angeles County,439518.0,552902.0,778322.0
5038,91324,CA,Los Angeles,Los Angeles County,545577.0,651445.0,930738.0
5041,92394,CA,Victorville,San Bernardino County,199789.0,267107.0,414341.0
5051,91740,CA,Glendora,Los Angeles County,480073.0,564496.0,774246.0
5056,92011,CA,Carlsbad,San Diego County,832789.0,998836.0,1595536.0
5076,93060,CA,Santa Paula,Ventura County,388460.0,471521.0,685392.0
5082,90272,CA,Los Angeles,Los Angeles County,2891827.0,3208562.0,3801709.0
5084,91504,CA,Burbank,Los Angeles County,695015.0,875054.0,1215439.0
5104,95121,CA,San Jose,Santa Clara County,690873.0,867711.0,1262877.0
5105,95131,CA,San Jose,Santa Clara County,838672.0,1076413.0,1501474.0
5117,90062,CA,Los Angeles,Los Angeles County,409520.0,610068.0,823014.0
5120,92119,CA,San Diego,San Diego County,514338.0,630262.0,989305.0
5123,91302,CA,Calabasas,Los Angeles County,1290040.0,1437256.0,1982145.0
5130,91915,CA,Chula Vista,San Diego County,472733.0,551231.0,858361.0
5133,90713,CA,Lakewood,Los Angeles County,515773.0,614801.0,844948.0
5142,90680,CA,Stanton,Orange County,425648.0,526515.0,749790.0
5181,94621,CA,Oakland,Alameda County,310550.0,469961.0,619635.0
5198,95358,CA,Modesto,Stanislaus County,213401.0,299350.0,436929.0
5205,94580,CA,San Lorenzo,Alameda County,522871.0,670906.0,947503.0
5220,94704,CA,Berkeley,Alameda County,980213.0,1236351.0,1503657.0
5235,94947,CA,Novato,Marin County,733800.0,804170.0,1106434.0
5241,93662,CA,Selma,Fresno County,187532.0,240293.0,333396.0
5277,91741,CA,Glendora,Los Angeles County,634143.0,711832.0,954411.0
5283,92337,CA,Fontana,San Bernardino County,323337.0,401620.0,583756.0
5285,94803,CA,El Sobrante,Contra Costa County,466259.0,597793.0,818703.0
5287,95341,CA,Merced,Merced County,155442.0,226666.0,354088.0
5292,92354,CA,Loma Linda,San Bernardino County,352107.0,432770.0,601100.0
5293,95815,CA,Sacramento,Sacramento County,162895.0,253961.0,378648.0
5300,90814,CA,Long Beach,Los Angeles County,621473.0,747140.0,967945.0
5304,90210,CA,Beverly Hills,Los Angeles County,4676895.0,4982868.0,6093126.0
5312,91792,CA,West Covina,Los Angeles County,461412.0,558665.0,779193.0
5313,90249,CA,Gardena,Los Angeles County,454054.0,595354.0,828957.0
5330,91784,CA,Upland,San Bernardino County,593229.0,681593.0,955344.0
5348,92841,CA,Garden Grove,Orange County,547966.0,662267.0,943799.0
5350,91301,CA,Agoura Hills,Los Angeles County,795979.0,909479.0,1257899.0
5356,94030,CA,Millbrae,San Mateo County,1512906.0,1794251.0,2259653.0
5357,91411,CA,Los Angeles,Los Angeles County,605687.0,771532.0,1045011.0
5368,95841,CA,Sacramento,Sacramento County,228440.0,324522.0,459116.0
5386,90710,CA,Los Angeles,Los Angeles County,494732.0,612658.0,827190.0
5396,95377,CA,Tracy,San Joaquin County,446768.0,552204.0,866015.0
5397,90717,CA,Lomita,Los Angeles County,569319.0,693719.0,931696.0
5406,95354,CA,Modesto,Stanislaus County,198036.0,274936.0,400143.0
5407,95959,CA,Nevada City,Nevada County,385322.0,460579.0,626698.0
5422,95961,CA,Olivehurst,Yuba County,204839.0,300720.0,441670.0
5440,92835,CA,Fullerton,Orange County,740187.0,829610.0,1195900.0
5450,94085,CA,Sunnyvale,Santa Clara County,1017873.0,1344100.0,1720294.0
5453,92881,CA,Corona,Riverside County,476907.0,569451.0,855923.0
5462,92405,CA,San Bernardino,San Bernardino County,207555.0,285353.0,430590.0
5474,92118,CA,Coronado,San Diego County,1529641.0,1940713.0,2729733.0
5480,94703,CA,Berkeley,Alameda County,965947.0,1254764.0,1586000.0
5481,93405,CA,San Luis Obispo,San Luis Obispo County,673979.0,753856.0,981472.0
5501,92227,CA,Brawley,Imperial County,176238.0,225156.0,317805.0
5521,90720,CA,Los Alamitos,Orange County,877799.0,1033543.0,1484228.0
5525,95776,CA,Woodland,Yolo County,363181.0,440566.0,616331.0
5540,94547,CA,Hercules,Contra Costa County,,764503.0,1057459.0
5545,91202,CA,Glendale,Los Angeles County,721478.0,908323.0,1237808.0
5546,95531,CA,Crescent City,Del Norte County,220885.0,256696.0,338152.0
5554,91945,CA,Lemon Grove,San Diego County,383748.0,482164.0,752389.0
5613,94089,CA,Sunnyvale,Santa Clara County,997447.0,1252975.0,1595747.0
5621,95521,CA,Arcata,Humboldt County,319047.0,355972.0,490425.0
5636,92832,CA,Fullerton,Orange County,491276.0,591038.0,852757.0
5649,91755,CA,Monterey Park,Los Angeles County,536439.0,642960.0,841750.0
5680,95133,CA,San Jose,Santa Clara County,733046.0,907630.0,1225040.0
5741,90732,CA,Los Angeles,Los Angeles County,561506.0,671575.0,882527.0
5745,92868,CA,Orange,Orange County,484703.0,594261.0,851244.0
5758,93618,CA,Dinuba,Tulare County,180042.0,228306.0,320671.0
5768,90606,CA,Whittier,Los Angeles County,414923.0,503775.0,690136.0
5771,95054,CA,Santa Clara,Santa Clara County,959769.0,1227849.0,1622054.0
5785,91103,CA,Pasadena,Los Angeles County,656625.0,810187.0,1075585.0
5791,95827,CA,Rancho Cordova,Sacramento County,247145.0,340988.0,495983.0
5810,93444,CA,Nipomo,San Luis Obispo County,555302.0,630281.0,874476.0
5816,91724,CA,Covina,Los Angeles County,517092.0,607512.0,839736.0
5821,96150,CA,South Lake Tahoe,El Dorado County,380296.0,457114.0,749523.0
5825,95363,CA,Patterson,Stanislaus County,284245.0,382724.0,534814.0
5828,93950,CA,Pacific Grove,Monterey County,857030.0,986669.0,1435992.0
5852,92596,CA,Winchester,Riverside County,370461.0,449327.0,691846.0
5868,94506,CA,Danville,Contra Costa County,1888047.0,2104706.0,3102472.0
5887,91501,CA,Burbank,Los Angeles County,718397.0,886699.0,1204909.0
5918,93560,CA,Rosamond,Kern County,189304.0,266123.0,395544.0
5922,95949,CA,Grass Valley,Nevada County,361434.0,428190.0,578583.0
5924,94706,CA,Albany,Alameda County,905871.0,1091413.0,1479360.0
5938,95448,CA,Healdsburg,Sonoma County,787423.0,881126.0,1124227.0
5939,92606,CA,Irvine,Orange County,781906.0,877239.0,1248209.0
5952,91361,CA,Westlake Village,Ventura County,970975.0,1113581.0,1526778.0
5959,92551,CA,Moreno Valley,Riverside County,258549.0,340519.0,524243.0
5980,91201,CA,Glendale,Los Angeles County,732092.0,911405.0,1243632.0
5995,94024,CA,Los Altos,Santa Clara County,2895182.0,3234032.0,4436051.0
5999,95819,CA,Sacramento,Sacramento County,493105.0,612840.0,781637.0
6003,91307,CA,Los Angeles,Los Angeles County,617928.0,723465.0,1017364.0
6005,91775,CA,San Gabriel,Los Angeles County,801888.0,914784.0,1228366.0
6015,94105,CA,San Francisco,San Francisco County,1404503.0,1366164.0,1366069.0
6025,91737,CA,Rancho Cucamonga,San Bernardino County,555678.0,662259.0,920499.0
6039,93041,CA,Port Hueneme,Ventura County,352600.0,428759.0,609231.0
6059,95965,CA,Oroville,Butte County,174393.0,258492.0,318723.0
6062,90602,CA,Whittier,Los Angeles County,476182.0,567046.0,774776.0
6109,93023,CA,Ojai,Ventura County,638992.0,727343.0,1098316.0
6128,90746,CA,Carson,Los Angeles County,484154.0,606091.0,818890.0
6147,94702,CA,Berkeley,Alameda County,836613.0,1048607.0,1404703.0
6165,90265,CA,Malibu,Los Angeles County,3130734.0,3300981.0,4135974.0
6212,95519,CA,McKinleyville,Humboldt County,310953.0,365553.0,514312.0
6225,91768,CA,Pomona,Los Angeles County,357364.0,457959.0,639728.0
6234,91340,CA,San Fernando,Los Angeles County,386938.0,496626.0,706557.0
6239,95746,CA,Granite Bay,Placer County,706355.0,841782.0,1178566.0
6247,90240,CA,Downey,Los Angeles County,520851.0,629276.0,821042.0
6274,91010,CA,Duarte,Los Angeles County,453566.0,548117.0,725316.0
6298,92106,CA,San Diego,San Diego County,949579.0,1169768.0,1780657.0
6327,92316,CA,Bloomington,San Bernardino County,272189.0,357614.0,529956.0
6339,92860,CA,Norco,Riverside County,464287.0,569573.0,823539.0
6364,94301,CA,Palo Alto,Santa Clara County,3860828.0,4023741.0,4823032.0
6395,95367,CA,Riverbank,Stanislaus County,263297.0,341083.0,482287.0
6408,91506,CA,Burbank,Los Angeles County,703713.0,877417.0,1232357.0
6414,91731,CA,El Monte,Los Angeles County,441190.0,516456.0,679876.0
6436,94127,CA,San Francisco,San Francisco County,1550894.0,1836054.0,2216613.0
6451,90245,CA,El Segundo,Los Angeles County,1089425.0,1364899.0,1822384.0
6452,95620,CA,Dixon,Solano County,375383.0,456230.0,624285.0
6471,95212,CA,Stockton,San Joaquin County,307090.0,395535.0,588218.0
6503,92532,CA,Lake Elsinore,Riverside County,339899.0,413966.0,643061.0
6504,91040,CA,Los Angeles,Los Angeles County,512577.0,650048.0,919152.0
6510,92603,CA,Irvine,Orange County,1271232.0,1325965.0,1824354.0
6516,90061,CA,Los Angeles,Los Angeles County,317930.0,442955.0,591621.0
6522,94022,CA,Los Altos,Santa Clara County,3491405.0,3809295.0,4948852.0
6530,94618,CA,Oakland,Alameda County,1411759.0,1687603.0,2228456.0
6547,95437,CA,Fort Bragg,Mendocino County,381780.0,414703.0,534659.0
6612,92173,CA,San Diego,San Diego County,334413.0,433826.0,675743.0
6616,94563,CA,Orinda,Contra Costa County,,2205912.0,3125236.0
6619,94108,CA,San Francisco,San Francisco County,1234349.0,1202944.0,1180926.0
6621,90222,CA,Compton,Los Angeles County,296423.0,406460.0,552533.0
6650,92029,CA,Escondido,San Diego County,651448.0,753747.0,1198114.0
6663,92808,CA,Anaheim,Orange County,700548.0,782918.0,1139600.0
6686,95422,CA,Clearlake,Lake County,109921.0,173934.0,233950.0
6701,90232,CA,Culver City,Los Angeles County,1071578.0,1408228.0,1801844.0
6726,92585,CA,Menifee,Riverside County,312147.0,390240.0,595077.0
6727,91203,CA,Glendale,Los Angeles County,484214.0,615418.0,791131.0
6728,90303,CA,Inglewood,Los Angeles County,421926.0,588226.0,816246.0
6739,95135,CA,San Jose,Santa Clara County,1032725.0,1237579.0,1804346.0
6792,95330,CA,Lathrop,San Joaquin County,338503.0,444935.0,684052.0
6801,93103,CA,Santa Barbara,Santa Barbara County,1247199.0,1269129.0,1887503.0
6824,94949,CA,Novato,Marin County,839333.0,952288.0,1315217.0
6826,93907,CA,Salinas,Monterey County,485951.0,605726.0,858869.0
6828,92411,CA,San Bernardino,San Bernardino County,187954.0,269641.0,413546.0
6886,92082,CA,Valley Center,San Diego County,537181.0,628758.0,946464.0
6890,95602,CA,Auburn,Placer County,402662.0,497739.0,695354.0
6913,91723,CA,Covina,Los Angeles County,459391.0,551685.0,765012.0
6938,92887,CA,Yorba Linda,Orange County,847770.0,926679.0,1372960.0
6945,92501,CA,Riverside,Riverside County,287256.0,369906.0,548223.0
6961,92251,CA,Imperial,Imperial County,215610.0,268446.0,367373.0
6966,94579,CA,San Leandro,Alameda County,550202.0,691704.0,979828.0
7006,96161,CA,Truckee,Nevada County,605200.0,711645.0,1111504.0
7021,91384,CA,Castaic,Los Angeles County,488919.0,579566.0,805081.0
7041,91011,CA,La Canada Flintridge,Los Angeles County,1511304.0,1699865.0,2224825.0
7047,93280,CA,Wasco,Kern County,167027.0,203341.0,286254.0
7054,90603,CA,Whittier,Los Angeles County,525087.0,614756.0,840823.0
7081,94041,CA,Mountain View,Santa Clara County,1726399.0,2071554.0,2552812.0
7086,95215,CA,Garden Acres,San Joaquin County,184348.0,271497.0,403427.0
7102,94519,CA,Concord,Contra Costa County,,564036.0,725401.0
7122,96022,CA,Cottonwood,Tehama County,233928.0,299044.0,375345.0
7126,92625,CA,Newport Beach,Orange County,2531237.0,2853187.0,3923141.0
7135,91381,CA,Santa Clarita,Los Angeles County,684294.0,785003.0,1083974.0
7140,90304,CA,Inglewood,Los Angeles County,401805.0,557492.0,746061.0
7154,94945,CA,Novato,Marin County,792233.0,872159.0,1198517.0
7165,92014,CA,Del Mar,San Diego County,1627462.0,1917881.0,2842309.0
7167,90293,CA,Los Angeles,Los Angeles County,718980.0,889063.0,1067773.0
7179,95110,CA,San Jose,Santa Clara County,622216.0,819301.0,1026732.0
7192,91746,CA,West Puente Valley,Los Angeles County,403791.0,496079.0,682922.0
7206,95366,CA,Ripon,San Joaquin County,391361.0,484683.0,700405.0
7209,90013,CA,Los Angeles,Los Angeles County,510025.0,619003.0,673782.0
7230,95817,CA,Sacramento,Sacramento County,272327.0,396868.0,551461.0
7244,96130,CA,Susanville,Lassen County,169087.0,181531.0,237867.0
7245,92377,CA,Rialto,San Bernardino County,342115.0,426298.0,624416.0
7262,92865,CA,Orange,Orange County,580917.0,680721.0,992612.0
7265,92010,CA,Carlsbad,San Diego County,630702.0,754680.0,1178328.0
7323,93725,CA,Fresno,Fresno County,161658.0,221197.0,310358.0
7330,92844,CA,Garden Grove,Orange County,489307.0,610515.0,881312.0
7344,90270,CA,Maywood,Los Angeles County,344872.0,444543.0,596287.0
7359,93013,CA,Carpinteria,Santa Barbara County,849637.0,954007.0,1423610.0
7368,93111,CA,Santa Barbara,Santa Barbara County,923483.0,1000476.0,1538887.0
7387,90212,CA,Beverly Hills,Los Angeles County,1864463.0,2453112.0,2810484.0
7388,94019,CA,Half Moon Bay,San Mateo County,1076691.0,1274431.0,1751381.0
7406,96021,CA,Corning,Tehama County,197464.0,245249.0,294103.0
7409,93110,CA,Santa Barbara,Santa Barbara County,1103601.0,1187148.0,1797207.0
7431,90305,CA,Inglewood,Los Angeles County,441275.0,626681.0,884469.0
7453,95490,CA,Willits,Mendocino County,286454.0,299981.0,382046.0
7465,94705,CA,Berkeley,Alameda County,1593875.0,1863501.0,2511796.0
7473,91390,CA,Santa Clarita,Los Angeles County,577645.0,668272.0,942551.0
7500,91204,CA,Glendale,Los Angeles County,511282.0,655311.0,862044.0
7509,91105,CA,Pasadena,Los Angeles County,1100411.0,1285279.0,1680317.0
7537,93514,CA,Bishop,Inyo County,361423.0,422425.0,537382.0
7539,92075,CA,Solana Beach,San Diego County,1250382.0,1518252.0,2237191.0
7543,94503,CA,American Canyon,Napa County,495198.0,595168.0,805775.0
7581,90715,CA,Lakewood,Los Angeles County,451529.0,563247.0,774317.0
7627,91208,CA,Glendale,Los Angeles County,881515.0,1071126.0,1492693.0
7649,95963,CA,Orland,Glenn County,238186.0,282366.0,377375.0
7659,91901,CA,Alpine,San Diego County,556264.0,650278.0,965560.0
7660,93630,CA,Kerman,Fresno County,216059.0,270588.0,380585.0
7664,95814,CA,Sacramento,Sacramento County,453188.0,556613.0,646667.0
7675,95540,CA,Fortuna,Humboldt County,276553.0,321828.0,466194.0
7680,93610,CA,Chowchilla,Madera County,195384.0,267810.0,382815.0
7688,90502,CA,West Carson,Los Angeles County,417799.0,537346.0,729633.0
7714,93263,CA,Shafter,Kern County,187705.0,226792.0,317615.0
7717,92344,CA,Hesperia,San Bernardino County,269320.0,332353.0,491637.0
7725,94505,CA,Discovery Bay,Contra Costa County,506093.0,641422.0,913717.0
7741,94960,CA,San Anselmo,Marin County,1079215.0,1244852.0,1784439.0
7752,93728,CA,Fresno,Fresno County,143953.0,198877.0,290322.0
7776,93402,CA,Los Osos,San Luis Obispo County,510492.0,615659.0,863872.0
7777,93631,CA,Kingsburg,Fresno County,250137.0,300496.0,402819.0
7792,92587,CA,Canyon Lake,Riverside County,339454.0,417003.0,632308.0
7829,94920,CA,Tiburon,Marin County,2819748.0,2785632.0,3638682.0
7844,91902,CA,Bonita,San Diego County,594046.0,693781.0,1070835.0
7858,95138,CA,San Jose,Santa Clara County,1074260.0,1254692.0,1817958.0
7865,94965,CA,Sausalito,Marin County,1301411.0,1323265.0,1705248.0
7873,93927,CA,Greenfield,Monterey County,284742.0,362403.0,503914.0
7875,93923,CA,Carmel-by-the-Sea,Monterey County,1505658.0,1708948.0,2549562.0
7880,95391,CA,Tracy,San Joaquin County,547623.0,656010.0,1116670.0
7897,94507,CA,Alamo,Contra Costa County,1641545.0,1886913.0,2758311.0
7900,95954,CA,Magalia,Butte County,181484.0,255244.0,282282.0
7908,92225,CA,Blythe,Riverside County,134136.0,160168.0,230789.0
7911,92866,CA,Orange,Orange County,619303.0,710676.0,999085.0
7925,94556,CA,Moraga,Contra Costa County,,1357790.0,1832500.0
7942,95066,CA,Scotts Valley,Santa Cruz County,839269.0,990232.0,1419188.0
7964,90094,CA,Los Angeles,Los Angeles County,916644.0,1133058.0,1345385.0
8006,93268,CA,Taft,Kern County,123013.0,134610.0,191572.0
8017,95010,CA,Capitola,Santa Cruz County,739319.0,919683.0,1319398.0
8026,94709,CA,Berkeley,Alameda County,1028183.0,1289733.0,1567627.0
8063,95338,CA,Mariposa,Mariposa County,270654.0,308398.0,397916.0
8073,95252,CA,Valley Springs,Calaveras County,274188.0,,491125.0
8096,91436,CA,Los Angeles,Los Angeles County,1547466.0,1796038.0,2482966.0
8135,90401,CA,Santa Monica,Los Angeles County,1177161.0,1356685.0,1333285.0
8157,93247,CA,Lindsay,Tulare County,157380.0,200451.0,290914.0
8166,93442,CA,Morro Bay,San Luis Obispo County,597451.0,692143.0,965160.0
8174,95203,CA,Stockton,San Joaquin County,162824.0,249831.0,381860.0
8177,92845,CA,Garden Grove,Orange County,605135.0,710247.0,1027531.0
8178,93301,CA,Bakersfield,Kern County,175323.0,205987.0,293417.0
8186,95451,CA,Kelseyville,Lake County,235243.0,289243.0,395415.0
8257,94571,CA,Rio Vista,Solano County,320203.0,392758.0,509456.0
8297,93960,CA,Soledad,Monterey County,327562.0,419043.0,599125.0
8306,95453,CA,Lakeport,Lake County,228405.0,276204.0,390968.0
8314,93433,CA,Grover Beach,San Luis Obispo County,467971.0,536879.0,747090.0
8322,93221,CA,Exeter,Tulare County,202853.0,243218.0,359902.0
8338,90402,CA,Santa Monica,Los Angeles County,3722104.0,4097723.0,4874793.0
8368,95030,CA,Los Gatos,Santa Clara County,2593767.0,2843010.0,3786723.0
8371,93203,CA,Arvin,Kern County,151905.0,188961.0,264404.0
8394,95673,CA,Rio Linda,Sacramento County,231275.0,323730.0,473116.0
8422,94707,CA,Berkeley,Alameda County,1356609.0,1625984.0,2171325.0
8426,94904,CA,Kentfield,Marin County,1745187.0,1915871.0,2455367.0
8438,95357,CA,Modesto,Stanislaus County,278803.0,360199.0,512834.0
8440,90670,CA,Santa Fe Springs,Los Angeles County,421819.0,516130.0,703976.0
8451,91502,CA,Burbank,Los Angeles County,508772.0,625119.0,807388.0
8461,95650,CA,Loomis,Placer County,500905.0,630820.0,913226.0
8479,93930,CA,King City,Monterey County,268382.0,341262.0,498733.0
8500,95605,CA,West Sacramento,Yolo County,217754.0,300406.0,421652.0
8525,92274,CA,Thermal,Imperial County,109421.0,152120.0,256492.0
8543,93015,CA,Fillmore,Ventura County,386480.0,467967.0,668872.0
8554,92314,CA,Big Bear City,San Bernardino County,221590.0,276208.0,443330.0
8557,95946,CA,Penn Valley,Nevada County,346594.0,405930.0,543975.0
8573,94502,CA,Alameda,Alameda County,857827.0,1029883.0,1408922.0
8575,91377,CA,Oak Park,Ventura County,734349.0,847004.0,1127239.0
8581,92582,CA,San Jacinto,Riverside County,254527.0,332699.0,524750.0
8598,90623,CA,La Palma,Orange County,667395.0,774452.0,1125079.0
8600,91345,CA,Los Angeles,Los Angeles County,454457.0,564291.0,793875.0
8615,94542,CA,Hayward,Alameda County,756051.0,921830.0,1386468.0
8625,96097,CA,Yreka,Siskiyou County,175863.0,193364.0,251840.0
8657,94517,CA,Clayton,Contra Costa County,,,1461763.0
8691,94065,CA,Redwood City,San Mateo County,1391828.0,1619141.0,2036156.0
8704,90014,CA,Los Angeles,Los Angeles County,451859.0,498992.0,558564.0
8709,93614,CA,Coarsegold,Madera County,243378.0,311293.0,433448.0
8722,92007,CA,Encinitas,San Diego County,1086700.0,1424365.0,2143618.0
8792,94552,CA,Castro Valley,Alameda County,924245.0,1082242.0,1640305.0
8794,94158,CA,San Francisco,San Francisco County,1352033.0,1451833.0,1452581.0
8826,93210,CA,Coalinga,Fresno County,159248.0,192458.0,280021.0
8855,91024,CA,Sierra Madre,Los Angeles County,900640.0,1052588.0,1410804.0
8871,91914,CA,Chula Vista,San Diego County,629434.0,712937.0,1115353.0
8881,95130,CA,San Jose,Santa Clara County,1228333.0,1444004.0,2091921.0
8916,93449,CA,Pismo Beach,San Luis Obispo County,847950.0,915258.0,1264352.0
8918,95425,CA,Cloverdale,Sonoma County,459442.0,557434.0,677563.0
8948,93730,CA,Fresno,Fresno County,420958.0,489905.0,661206.0
8950,93505,CA,California City,Kern County,108818.0,169583.0,271164.0
8951,93108,CA,Montecito,Santa Barbara County,3170704.0,3129861.0,4805386.0
8967,92617,CA,Irvine,Orange County,438922.0,576100.0,932111.0
8996,93908,CA,Salinas,Monterey County,741909.0,844491.0,1128671.0
9011,94708,CA,Berkeley,Alameda County,1314154.0,1552713.0,1994053.0
9020,93644,CA,Oakhurst,Madera County,248820.0,310451.0,436057.0
9061,95073,CA,Soquel,Santa Cruz County,849279.0,992799.0,1504962.0
9108,93212,CA,Corcoran,Kings County,130577.0,163681.0,236663.0
9132,95320,CA,Escalon,San Joaquin County,327578.0,419826.0,608123.0
9139,91708,CA,Chino,San Bernardino County,434904.0,496671.0,710550.0
9151,95006,CA,Boulder Creek,Santa Cruz County,546387.0,630314.0,865868.0
9181,95334,CA,Livingston,Merced County,211343.0,274500.0,413539.0
9201,93465,CA,Templeton,San Luis Obispo County,576599.0,661647.0,926331.0
9229,95368,CA,Salida,Stanislaus County,267713.0,359387.0,503784.0
9263,93636,CA,Madera,Madera County,294724.0,383872.0,551272.0
9266,90701,CA,Artesia,Los Angeles County,472432.0,569302.0,766629.0
9267,92325,CA,Crestline,San Bernardino County,188160.0,244552.0,387706.0
9268,93109,CA,Santa Barbara,Santa Barbara County,1245360.0,1402824.0,2146840.0
9271,95304,CA,Tracy,San Joaquin County,555030.0,680089.0,1029049.0
9288,92252,CA,Joshua Tree,San Bernardino County,151976.0,249767.0,456013.0
9292,92067,CA,Rancho Santa Fe,San Diego County,2667661.0,2770944.0,4117727.0
9294,92313,CA,Grand Terrace,San Bernardino County,316856.0,384692.0,556017.0
9303,90755,CA,Signal Hill,Los Angeles County,463485.0,547945.0,727434.0
9318,95742,CA,Rancho Cordova,Sacramento County,375404.0,470412.0,678873.0
9325,95811,CA,Sacramento,Sacramento County,463974.0,559507.0,669312.0
9337,92657,CA,Newport Beach,Orange County,2802916.0,2998732.0,4192795.0
9339,91108,CA,San Marino,Los Angeles County,1215343.0,2255735.0,2722654.0
9376,94574,CA,Saint Helena,Napa County,1247963.0,1512426.0,1992255.0
9389,94305,CA,Stanford,Santa Clara County,3003425.0,3236166.0,4113864.0
9455,96067,CA,Mount Shasta,Siskiyou County,289975.0,331310.0,426116.0
9472,93546,CA,Mammoth Lakes,Mono County,432021.0,511207.0,672186.0
9474,95948,CA,Gridley,Butte County,182721.0,270134.0,358686.0
9502,93648,CA,Parlier,Fresno County,152254.0,203345.0,287288.0
9504,92241,CA,Desert Hot Springs,Riverside County,178890.0,261678.0,380103.0
9510,92610,CA,Lake Forest,Orange County,691784.0,775089.0,1118263.0
9525,95726,CA,Pollock Pines,El Dorado County,253149.0,308400.0,438988.0
9656,94931,CA,Cotati,Sonoma County,486948.0,583100.0,744884.0
9658,90056,CA,Ladera Heights,Los Angeles County,928476.0,1324480.0,1766373.0
9668,95360,CA,Newman,Stanislaus County,228266.0,317053.0,448722.0
9672,96019,CA,Shasta Lake,Shasta County,,223793.0,310697.0
9680,95388,CA,Winton,Merced County,151333.0,224586.0,348321.0
9694,93640,CA,Mendota,Fresno County,145928.0,212606.0,279880.0
9712,93543,CA,Littlerock,Los Angeles County,213463.0,298442.0,435321.0
9739,92320,CA,Calimesa,Riverside County,299262.0,375616.0,562249.0
9745,93241,CA,Lamont,Kern County,113396.0,150845.0,214435.0
9761,91207,CA,Glendale,Los Angeles County,954198.0,1149758.0,1616777.0
9826,92210,CA,Indian Wells,Riverside County,771192.0,814507.0,1271117.0
9828,93428,CA,Cambria,San Luis Obispo County,681941.0,766381.0,1078705.0
9866,92408,CA,San Bernardino,San Bernardino County,223136.0,299568.0,437983.0
9923,94925,CA,Corte Madera,Marin County,1328854.0,1477153.0,2034922.0
9952,95640,CA,Ione,Amador County,285902.0,343427.0,467360.0
9968,90211,CA,Beverly Hills,Los Angeles County,1324611.0,2098204.0,2488178.0
10064,90248,CA,Los Angeles,Los Angeles County,468634.0,599685.0,788523.0
10074,95326,CA,Hughson,Stanislaus County,316194.0,391112.0,556356.0
10090,92276,CA,Thousand Palms,Riverside County,191222.0,256092.0,364316.0
10142,92315,CA,Big Bear Lake,San Bernardino County,322204.0,377382.0,628333.0
10148,95642,CA,Jackson,Amador County,293042.0,343099.0,461405.0
10156,90077,CA,Los Angeles,Los Angeles County,2528698.0,2692780.0,3348870.0
10221,95315,CA,Delhi,Merced County,197832.0,270819.0,408380.0
10260,95018,CA,Felton,Santa Cruz County,576598.0,711799.0,1003563.0
10275,95988,CA,Willows,Glenn County,184771.0,218641.0,293451.0
10293,95386,CA,Waterford,Stanislaus County,221885.0,291592.0,420539.0
10294,93250,CA,Mc Farland,Kern County,168009.0,199602.0,276283.0
10307,90716,CA,Hawaiian Gardens,Los Angeles County,323883.0,436111.0,587217.0
10339,94930,CA,Fairfax,Marin County,854945.0,957373.0,1403132.0
10367,95713,CA,Colfax,Placer County,322144.0,401729.0,547089.0
10427,92371,CA,Phelan,San Bernardino County,228131.0,293505.0,431634.0
10429,94515,CA,Calistoga,Napa County,738750.0,883928.0,1130799.0
10433,92254,CA,Mecca,Riverside County,129835.0,181368.0,288809.0
10482,95953,CA,Live Oak,Sutter County,197303.0,271364.0,394719.0
10517,93701,CA,Fresno,Fresno County,107299.0,162010.0,236562.0
10527,94939,CA,Larkspur,Marin County,1504362.0,1701712.0,2260617.0
10543,95033,CA,Lexington Hills,Santa Clara County,1120140.0,1239143.0,1654239.0
10549,93924,CA,Carmel Valley,Monterey County,957923.0,1077818.0,1518075.0
10587,95322,CA,Gustine,Merced County,210314.0,300894.0,441513.0
10593,95694,CA,Winters,Yolo County,374520.0,461637.0,623003.0
10668,91935,CA,Jamul,San Diego County,595321.0,683672.0,1015555.0
10701,93620,CA,Dos Palos,Merced County,164542.0,238177.0,353400.0
10715,92624,CA,Dana Point,Orange County,929051.0,1040542.0,1499818.0
10727,93723,CA,Fresno,Fresno County,310366.0,368748.0,514568.0
10780,93463,CA,Solvang,Santa Barbara County,783852.0,862675.0,1301490.0
10802,95932,CA,Colusa,Colusa County,222951.0,256079.0,338160.0
10815,91978,CA,Spring Valley,San Diego County,435433.0,541015.0,828688.0
10877,90040,CA,Commerce,Los Angeles County,370235.0,469591.0,606993.0
10882,94710,CA,Berkeley,Alameda County,793205.0,1015349.0,1277293.0
10887,95436,CA,Forestville,Sonoma County,488947.0,575454.0,725989.0
10892,95446,CA,Guerneville,Sonoma County,403390.0,472634.0,657597.0
10895,91020,CA,La Crescenta-Montrose,Los Angeles County,629583.0,763257.0,984448.0
10903,96094,CA,Weed,Siskiyou County,203467.0,232061.0,306347.0
10919,95971,CA,Quincy,Plumas County,232225.0,255391.0,330270.0
10971,92359,CA,Mentone,San Bernardino County,266877.0,342802.0,483354.0
10981,95202,CA,Stockton,San Joaquin County,148592.0,250837.0,381136.0
11000,93622,CA,Firebaugh,Fresno County,165175.0,204156.0,284946.0
11024,95327,CA,Jamestown,Tuolumne County,,,411031.0
11057,93647,CA,Orosi,Tulare County,149324.0,192609.0,277387.0
11090,93286,CA,Woodlake,Tulare County,156786.0,202439.0,299958.0
11105,93510,CA,Acton,Los Angeles County,528187.0,619478.0,888113.0
11108,95012,CA,Castroville,Monterey County,382631.0,506193.0,660277.0
11117,93240,CA,Lake Isabella,Kern County,121744.0,148770.0,198857.0
11119,95832,CA,Sacramento,Sacramento County,211422.0,292586.0,419622.0
11120,92567,CA,Nuevo,Riverside County,289704.0,364990.0,550990.0
11139,95065,CA,Santa Cruz,Santa Cruz County,813241.0,961501.0,1519456.0
11164,95119,CA,San Jose,Santa Clara County,844256.0,1009285.0,1491829.0
11254,93921,CA,Carmel-by-the-Sea,Monterey County,1494119.0,1890864.0,3240414.0
11287,92356,CA,Lucerne Valley,San Bernardino County,121351.0,180459.0,267406.0
11308,95324,CA,Hilmar,Merced County,247348.0,312751.0,464131.0
11315,95666,CA,Pioneer,Amador County,229333.0,266466.0,366843.0
11372,93223,CA,Farmersville,Tulare County,144748.0,183202.0,273821.0
11406,95019,CA,Freedom,Santa Cruz County,422057.0,550907.0,811800.0
11458,95658,CA,Newcastle,Placer County,535157.0,667913.0,997249.0
11487,90290,CA,Topanga,Los Angeles County,1074518.0,1258007.0,1685076.0
11496,93460,CA,Santa Ynez,Santa Barbara County,1014200.0,1113613.0,1647715.0
11504,93953,CA,Del Monte Forest,Monterey County,2039936.0,2270119.0,3166698.0
11505,95683,CA,Sloughhouse,Sacramento County,448577.0,546143.0,758207.0
11574,96101,CA,Alturas,Modoc County,107575.0,120894.0,152640.0
11579,95631,CA,Foresthill,Placer County,326744.0,398617.0,541221.0
11639,93646,CA,Orange Cove,Fresno County,152279.0,191707.0,265192.0
11673,92363,CA,Needles,San Bernardino County,79364.0,103770.0,177688.0
11675,95693,CA,Wilton,Sacramento County,571061.0,691546.0,993926.0
11725,92655,CA,Westminster,Orange County,551332.0,675972.0,948273.0
11733,93625,CA,Fowler,Fresno County,234117.0,289388.0,398566.0
11751,92250,CA,Holtville,Imperial County,157855.0,191548.0,300074.0
11794,93926,CA,Gonzales,Monterey County,334438.0,432242.0,596763.0
11797,95005,CA,Ben Lomond,Santa Cruz County,635273.0,761597.0,1083352.0
11818,92342,CA,Helendale,San Bernardino County,201458.0,251259.0,363292.0
11835,93427,CA,Buellton,Santa Barbara County,556015.0,618435.0,856348.0
11851,95619,CA,Diamond Springs,El Dorado County,264745.0,335410.0,463294.0
11919,95220,CA,Acampo,San Joaquin County,438774.0,559564.0,840069.0
11960,93445,CA,Oceano,San Luis Obispo County,401739.0,474772.0,647221.0
11964,93022,CA,Oak View,Ventura County,531316.0,608941.0,887004.0
11979,96145,CA,Tahoe City,Placer County,782820.0,952133.0,1440316.0
11988,93204,CA,Avenal,Kings County,111454.0,140465.0,200445.0
11997,95383,CA,Twain Harte,Tuolumne County,,,427879.0
12006,94028,CA,Portola Valley,San Mateo County,3468427.0,3896024.0,4492671.0
12019,92661,CA,Newport Beach,Orange County,2986907.0,3231261.0,4549552.0
12032,95316,CA,Denair,Stanislaus County,312442.0,393969.0,556034.0
12095,95470,CA,Redwood Valley,Mendocino County,409194.0,442930.0,599104.0
12184,93219,CA,Earlimart,Tulare County,131914.0,162460.0,242566.0
12220,96088,CA,Shingletown,Shasta County,,264835.0,348725.0
12279,95247,CA,Murphys,Calaveras County,337025.0,378189.0,532385.0
12311,95685,CA,Sutter Creek,Amador County,323334.0,378848.0,508668.0
12319,94027,CA,Atherton,San Mateo County,6337562.0,6698018.0,8074774.0
12332,94111,CA,San Francisco,San Francisco County,1315033.0,1318006.0,1304206.0
12344,95046,CA,San Martin,Santa Clara County,959365.0,1099273.0,1589946.0
12347,93225,CA,Frazier Park,Kern County,167453.0,220914.0,336502.0
12351,92397,CA,Wrightwood,San Bernardino County,256828.0,309588.0,435706.0
12377,92548,CA,Homeland,Riverside County,225060.0,304592.0,444695.0
12390,95258,CA,Woodbridge,San Joaquin County,345754.0,433509.0,606985.0
12417,92382,CA,Running Springs,San Bernardino County,184563.0,239617.0,377202.0
12420,95228,CA,Copperopolis,Calaveras County,349307.0,,557073.0
12454,92003,CA,Bonsall,San Diego County,569094.0,680216.0,1019546.0
12491,90010,CA,Los Angeles,Los Angeles County,811515.0,860861.0,981239.0
12523,95467,CA,Hidden Valley Lake,Lake County,262914.0,328499.0,407658.0
12524,92549,CA,Idyllwild,Riverside County,266284.0,345561.0,543482.0
12610,93501,CA,Mojave,Kern County,96250.0,153642.0,207914.0
12661,95665,CA,Pine Grove,Amador County,279193.0,327833.0,440495.0
12665,93434,CA,Guadalupe,Santa Barbara County,288915.0,370320.0,517377.0
12677,95709,CA,Camino,El Dorado County,318529.0,376685.0,515662.0
12759,95223,CA,Arnold,Calaveras County,,317794.0,495773.0
12779,95623,CA,El Dorado,El Dorado County,374766.0,441400.0,642669.0
12793,95321,CA,Groveland,Tuolumne County,,285137.0,444819.0
12798,96137,CA,Westwood,Plumas County,313198.0,338867.0,448356.0
12818,93265,CA,Springville,Tulare County,273856.0,335255.0,488463.0
12843,94304,CA,Palo Alto,Santa Clara County,3267546.0,3426807.0,4074129.0
12869,95722,CA,Meadow Vista,Placer County,435172.0,524304.0,731798.0
12873,93234,CA,Huron,Fresno County,130600.0,161105.0,243799.0
12918,95236,CA,Linden,San Joaquin County,381850.0,492155.0,707917.0
12930,95423,CA,Clearlake Oaks,Lake County,148887.0,189653.0,288603.0
12936,95626,CA,Elverta,Sacramento County,265917.0,365976.0,536369.0
12964,95139,CA,San Jose,Santa Clara County,760263.0,944269.0,1389049.0
12979,94005,CA,Brisbane,San Mateo County,861100.0,1076169.0,1325933.0
13036,93721,CA,Fresno,Fresno County,86722.0,125952.0,200844.0
13105,92004,CA,Borrego Springs,San Diego County,211881.0,232179.0,346267.0
13138,92662,CA,Newport Beach,Orange County,2838935.0,3029276.0,4234850.0
13156,93430,CA,Cayucos,San Luis Obispo County,949522.0,1019617.0,1444620.0
13192,96064,CA,Montague,Siskiyou County,165235.0,185044.0,249268.0
13200,92823,CA,Brea,Orange County,752626.0,812444.0,1148469.0
13223,92539,CA,Anza,Riverside County,218874.0,292617.0,437413.0
13249,95938,CA,Durham,Butte County,378553.0,527696.0,628355.0
13254,96073,CA,Palo Cedro,Shasta County,,431874.0,594203.0
13257,96093,CA,Weaverville,Trinity County,246739.0,261522.0,338822.0
13273,96122,CA,Portola,Plumas County,168491.0,183322.0,247136.0
13281,95222,CA,Murphys,Calaveras County,304850.0,,488030.0
13283,93591,CA,Palmdale,Los Angeles County,152660.0,241815.0,360122.0
13325,92249,CA,Heber,Imperial County,202861.0,250311.0,372156.0
13327,95692,CA,Wheatland,Yuba County,245145.0,336188.0,474594.0
13341,96013,CA,Burney,Shasta County,,152921.0,222011.0
13343,95987,CA,Williams,Colusa County,217454.0,253396.0,333875.0
13503,93656,CA,Riverdale,Fresno County,162098.0,222637.0,299574.0
13517,94951,CA,Penngrove,Sonoma County,836636.0,979834.0,1334116.0
13518,92372,CA,Pinon Hills,San Bernardino County,232240.0,298586.0,428214.0
13555,95249,CA,San Andreas,Calaveras County,275068.0,275341.0,384753.0
13564,93267,CA,Strathmore,Tulare County,145199.0,192353.0,279092.0
13570,92861,CA,Villa Park,Orange County,1261290.0,1358801.0,2025635.0
13671,92317,CA,Lake Arrowhead,San Bernardino County,198891.0,266241.0,426211.0
13690,90067,CA,Los Angeles,Los Angeles County,1035464.0,1196176.0,1410601.0
13699,95457,CA,Lower Lake,Lake County,232532.0,296549.0,410155.0
13709,95379,CA,Tuolumne,Tuolumne County,,,359604.0
13714,93270,CA,Terra Bella,Tulare County,171691.0,216461.0,317715.0
13755,92256,CA,Morongo Valley,San Bernardino County,153780.0,223691.0,344724.0
13790,93650,CA,Fresno,Fresno County,148830.0,199182.0,293598.0
13828,95672,CA,Rescue,El Dorado County,457644.0,551098.0,799509.0
13832,92036,CA,Julian,San Diego County,318045.0,386823.0,569013.0
13879,93737,CA,Fresno,Fresno County,310449.0,368077.0,528157.0
13910,96020,CA,Chester,Plumas County,240696.0,265036.0,345667.0
13926,93609,CA,Caruthers,Fresno County,182866.0,242220.0,330770.0
13960,95912,CA,Arbuckle,Colusa County,256344.0,308887.0,405319.0
13984,94018,CA,Half Moon Bay,San Mateo County,1046797.0,1251042.0,1682319.0
14000,94599,CA,Yountville,Napa County,1011985.0,965215.0,1373738.0
14037,96143,CA,Kings Beach,Placer County,450633.0,566556.0,839841.0
14053,92121,CA,San Diego,San Diego County,608945.0,764443.0,1147334.0
14057,95445,CA,Gualala,Mendocino County,465744.0,489072.0,613189.0
14077,92590,CA,Temecula,Riverside County,898263.0,1026377.0,1554957.0
14088,95614,CA,Cool,El Dorado County,344566.0,407866.0,582876.0
14092,96055,CA,Los Molinos,Tehama County,178159.0,213795.0,295011.0
14118,95460,CA,Mendocino,Mendocino County,727489.0,787475.0,997357.0
14194,95045,CA,San Juan Bautista,San Benito County,557022.0,658048.0,947856.0
14209,92352,CA,Lake Arrowhead,San Bernardino County,392304.0,448400.0,731397.0
14220,95442,CA,Glen Ellen,Sonoma County,864307.0,979932.0,1386875.0
14360,95237,CA,Lockeford,San Joaquin County,301132.0,372148.0,538497.0
14375,95461,CA,Middletown,Lake County,210774.0,264732.0,360948.0
14396,93451,CA,San Miguel,San Luis Obispo County,335746.0,409093.0,559048.0
14425,93643,CA,North Fork,Madera County,258426.0,309919.0,442530.0
14436,93256,CA,Pixley,Tulare County,124002.0,156236.0,231683.0
14529,93615,CA,Cutler,Tulare County,124121.0,172417.0,247562.0
14553,95684,CA,Somerset,El Dorado County,325753.0,364485.0,520956.0
14554,92536,CA,Aguanga,Riverside County,327380.0,396034.0,587765.0
14589,95634,CA,Georgetown,El Dorado County,266206.0,333723.0,451818.0
14626,95365,CA,Planada,Merced County,124034.0,196081.0,292422.0
14669,95458,CA,Lucerne,Lake County,151130.0,214131.0,279487.0
14677,93602,CA,Auberry,Fresno County,265030.0,301063.0,397730.0
14689,95655,CA,Mather,Sacramento County,333869.0,427618.0,610998.0
14796,95004,CA,Aromas,Monterey County,591393.0,717621.0,1021647.0
14813,93675,CA,Squaw Valley,Fresno County,212169.0,260317.0,384782.0
14853,95969,CA,Paradise,Butte County,217700.0,289759.0,332519.0
14969,90704,CA,Avalon,Los Angeles County,626384.0,722600.0,878747.0
15005,93285,CA,Wofford Heights,Kern County,128053.0,146320.0,200721.0
15009,95562,CA,Rio Dell,Humboldt County,210073.0,256262.0,363271.0
15058,95570,CA,Trinidad,Humboldt County,573796.0,710272.0,914122.0
15059,95113,CA,San Jose,Santa Clara County,675109.0,784996.0,844827.0
15093,91906,CA,Campo,San Diego County,252987.0,337275.0,497471.0
15100,94129,CA,San Francisco,San Francisco County,2099693.0,2640091.0,2631109.0
15107,93523,CA,Edwards,Kern County,70411.0,112318.0,191826.0
15171,95627,CA,Esparto,Yolo County,261398.0,348141.0,481019.0
15191,93453,CA,Simmler,San Luis Obispo County,465649.0,552206.0,798584.0
15197,95310,CA,Columbia,Tuolumne County,,,393852.0
15202,95231,CA,French Camp,San Joaquin County,266158.0,369445.0,590910.0
15255,93271,CA,Three Rivers,Tulare County,293714.0,362068.0,556666.0
15310,93235,CA,Ivanhoe,Tulare County,122465.0,171949.0,254381.0
15388,96114,CA,Janesville,Lassen County,230257.0,254071.0,329508.0
15394,95536,CA,Ferndale,Humboldt County,306166.0,372575.0,566182.0
15424,93202,CA,Armona,Kings County,141213.0,182780.0,268477.0
15484,95542,CA,Garberville,Humboldt County,449084.0,456228.0,549185.0
15506,92285,CA,Landers,San Bernardino County,87740.0,167146.0,321261.0
15509,94508,CA,Angwin,Napa County,758622.0,822180.0,991860.0
15527,95982,CA,Sutter,Sutter County,226796.0,302964.0,419295.0
15581,95633,CA,Garden Valley,El Dorado County,306395.0,374033.0,507542.0
15614,93066,CA,Somis,Ventura County,946560.0,1106477.0,1510541.0
15631,95560,CA,Redway,Humboldt County,,306083.0,400216.0
15678,95485,CA,Upper Lake,Lake County,253455.0,289509.0,370283.0
15725,95328,CA,Keyes,Stanislaus County,210817.0,294095.0,418429.0
15738,95916,CA,Berry Creek,Butte County,174355.0,223327.0,277010.0
15859,95669,CA,Plymouth,Amador County,360042.0,416846.0,573939.0
15885,90021,CA,Los Angeles,Los Angeles County,457815.0,579587.0,861429.0
15912,95663,CA,Penryn,Placer County,505166.0,631296.0,940334.0
16017,95372,CA,Soulsbyville,Tuolumne County,,,403463.0
16035,92386,CA,Big Bear City,San Bernardino County,156950.0,204162.0,349122.0
16042,95917,CA,Biggs,Butte County,174596.0,264506.0,345334.0
16058,95464,CA,Nice,Lake County,124444.0,192565.0,285216.0
16076,96035,CA,Gerber,Tehama County,160505.0,193179.0,262418.0
16079,95465,CA,Occidental,Sonoma County,820010.0,967103.0,1265608.0
16080,92233,CA,Calipatria,Imperial County,110655.0,142867.0,215252.0
16103,95329,CA,La Grange,Mariposa County,240845.0,290647.0,409440.0
16106,95454,CA,Laytonville,Mendocino County,293281.0,331419.0,411526.0
16125,94038,CA,Moss Beach,San Mateo County,1013287.0,1202500.0,1616472.0
16156,94037,CA,Montara,San Mateo County,1010585.0,1223786.0,1627449.0
16202,96041,CA,Hayfork,Trinity County,219917.0,245240.0,328258.0
16224,93660,CA,San Joaquin,Fresno County,138722.0,183447.0,273533.0
16310,92061,CA,Pauma Valley,San Diego County,491927.0,563307.0,823320.0
16318,94511,CA,Bethel Island,Contra Costa County,349962.0,444167.0,707238.0
16347,93527,CA,Inyokern,Kern County,149122.0,181176.0,238662.0
16390,96025,CA,Dunsmuir,Siskiyou County,160370.0,182942.0,243742.0
16436,93242,CA,Laton,Fresno County,174717.0,227180.0,311458.0
16443,95428,CA,Covelo,Mendocino County,,286353.0,364312.0
16448,96103,CA,Graeagle,Plumas County,262686.0,294937.0,388701.0
16609,93532,CA,Lake Hughes,Los Angeles County,217916.0,300707.0,423084.0
16628,93205,CA,Bodfish,Kern County,96149.0,123061.0,168217.0
16695,95524,CA,Bayside,Humboldt County,442141.0,514378.0,743979.0
16702,93222,CA,Pine Mountain Club,Kern County,215905.0,270764.0,447638.0
16720,95690,CA,Walnut Grove,Sacramento County,327188.0,411644.0,569356.0
16824,93272,CA,Tipton,Tulare County,130231.0,163815.0,243019.0
16832,95319,CA,Modesto,Stanislaus County,165322.0,249975.0,362309.0
16835,95311,CA,Coulterville,Mariposa County,215001.0,242183.0,325855.0
16904,95567,CA,Smith River,Del Norte County,293227.0,334565.0,440422.0
16954,96032,CA,Fort Jones,Siskiyou County,194957.0,220890.0,284892.0
17009,93283,CA,Weldon,Kern County,104718.0,128270.0,167294.0
17041,95441,CA,Geyserville,Sonoma County,1017659.0,1170033.0,1335345.0
17043,95918,CA,Browns Valley,Yuba County,378156.0,480669.0,631319.0
17095,95641,CA,Isleton,Sacramento County,239318.0,340452.0,451272.0
17112,94957,CA,Ross,Marin County,2976599.0,3136009.0,4473881.0
17273,95255,CA,West Point,Calaveras County,218343.0,241829.0,341216.0
17277,95947,CA,Greenville,Plumas County,180599.0,181893.0,244270.0
17292,93238,CA,Kernville,Kern County,200599.0,224981.0,298368.0
17315,90058,CA,Los Angeles,Los Angeles County,297127.0,404479.0,522743.0
17371,95469,CA,Potter Valley,Mendocino County,231892.0,338810.0,418686.0
17397,96027,CA,Etna,Siskiyou County,190200.0,212059.0,271056.0
17418,95246,CA,Mountain Ranch,Calaveras County,317533.0,290595.0,402509.0
17467,92230,CA,Cabazon,Riverside County,144401.0,217162.0,314825.0
17529,94923,CA,Bodega Bay,Sonoma County,942323.0,1079890.0,1580440.0
17531,95573,CA,Willow Creek,Humboldt County,294143.0,299717.0,383120.0
17538,93426,CA,Bradley,San Luis Obispo County,378017.0,440544.0,607577.0
17547,93626,CA,Friant,Fresno County,401115.0,463671.0,626046.0
17627,95968,CA,Palermo,Butte County,152984.0,226636.0,295507.0
17650,93667,CA,Tollhouse,Fresno County,273895.0,311549.0,439280.0
17669,92365,CA,Newberry Springs,San Bernardino County,111226.0,127181.0,207126.0
17682,93601,CA,Ahwahnee,Madera County,278508.0,347595.0,474868.0
17708,95525,CA,Blue Lake,Humboldt County,308186.0,356985.0,487190.0
17725,95960,CA,North San Juan,Nevada County,269954.0,334669.0,429574.0
17751,95333,CA,Le Grand,Merced County,152968.0,235573.0,332579.0
17753,95452,CA,Kenwood,Sonoma County,849144.0,947364.0,1283869.0
17773,93516,CA,Boron,Kern County,52194.0,82932.0,128359.0
17820,93545,CA,Lone Pine,Inyo County,,238367.0,301788.0
17881,95245,CA,Mokelumne Hill,Calaveras County,248886.0,287236.0,384494.0
17895,91962,CA,Descanso,San Diego County,366811.0,452954.0,646865.0
17904,96146,CA,Tahoe City,Placer County,622814.0,676272.0,951129.0
17983,95638,CA,Herald,Sacramento County,481814.0,578441.0,837549.0
18002,95975,CA,Rough and Ready,Nevada County,340670.0,400334.0,571096.0
18032,92242,CA,Earp,San Bernardino County,82040.0,90852.0,142099.0
18065,91916,CA,Descanso,San Diego County,375157.0,464152.0,658343.0
18097,92391,CA,Lake Arrowhead,San Bernardino County,196227.0,261315.0,404286.0
18125,95426,CA,Middletown,Lake County,164480.0,235290.0,322680.0
18135,93553,CA,Pearblossom,Los Angeles County,216966.0,283303.0,406237.0
18188,95703,CA,Applegate,Placer County,363878.0,450812.0,623794.0
18276,93424,CA,Avila Beach,San Luis Obispo County,999506.0,1037581.0,1382084.0
18277,92561,CA,Mountain Center,Riverside County,340400.0,416819.0,602129.0
18303,93513,CA,Big Pine,Inyo County,,284220.0,364905.0
18313,96008,CA,Bella Vista,Shasta County,,359426.0,490752.0
18366,94956,CA,Point Reyes Station,Marin County,961855.0,1095440.0,1683804.0
18386,96134,CA,Tulelake,Modoc County,79060.0,97193.0,120958.0
18394,93067,CA,Summerland,Santa Barbara County,1681831.0,1584244.0,2788369.0
18434,96056,CA,McArthur,Lassen County,185113.0,209302.0,285488.0
18437,93651,CA,Prather,Fresno County,348606.0,406494.0,562292.0
18455,95389,CA,El Portal,Mariposa County,536172.0,670733.0,871325.0
18481,95951,CA,Hamilton City,Glenn County,184244.0,210498.0,280530.0
18504,93616,CA,Del Rey,Fresno County,177765.0,234514.0,326430.0
18511,92091,CA,Rancho Santa Fe,San Diego County,1973209.0,2148613.0,3192143.0
18565,95444,CA,Graton,Sonoma County,525792.0,617084.0,778385.0
18591,95942,CA,Forest Ranch,Butte County,241093.0,325896.0,375657.0
18595,95002,CA,San Jose,Santa Clara County,810353.0,1060817.0,1387910.0
18596,95589,CA,Whitethorn,Humboldt County,306920.0,328578.0,475689.0
18671,96051,CA,Lakehead,Shasta County,,264526.0,350691.0
18676,95462,CA,Monte Rio,Sonoma County,409093.0,462672.0,668920.0
18767,96057,CA,McCloud,Siskiyou County,192981.0,220548.0,295387.0
18786,94020,CA,La Honda,San Mateo County,905766.0,917365.0,984986.0
18826,92676,CA,Silverado,Orange County,589316.0,700417.0,948746.0
18832,95039,CA,Moss Landing,Monterey County,481111.0,683783.0,846085.0
18868,95421,CA,Cazadero,Sonoma County,469378.0,557094.0,760927.0
18876,92086,CA,Warner Springs,San Diego County,292777.0,326943.0,481116.0
18881,96140,CA,Carnelian Bay,Placer County,622677.0,761060.0,1135809.0
18887,95977,CA,Smartsville,Nevada County,304448.0,375690.0,528637.0
18932,91905,CA,Boulevard,San Diego County,228521.0,309904.0,462191.0
18957,93249,CA,Lost Hills,Kern County,135547.0,172620.0,246617.0
19057,93920,CA,Big Sur,Monterey County,1786946.0,1988415.0,2531227.0
19077,90742,CA,Huntington Beach,Orange County,1806038.0,2032288.0,2739406.0
19098,94924,CA,Bolinas,Marin County,992097.0,1840218.0,2426801.0
19100,95689,CA,Volcano,Amador County,274295.0,322199.0,433370.0
19144,95962,CA,Oregon House,Yuba County,251007.0,320335.0,464698.0
19208,96028,CA,Fall River Mills,Shasta County,,202166.0,285517.0
19308,95551,CA,Loleta,Humboldt County,320196.0,357993.0,522435.0
19324,93440,CA,Los Alamos,Santa Barbara County,512338.0,558233.0,844663.0
19397,95449,CA,Hopland,Mendocino County,,,596978.0
19510,93206,CA,Buttonwillow,Kern County,125130.0,151254.0,203423.0
19511,94973,CA,Woodacre,Marin County,823560.0,860519.0,1251112.0
19512,95346,CA,Mi Wuk Village,Tuolumne County,,,372063.0
19542,93562,CA,Trona,San Bernardino County,57717.0,62706.0,50815.0
19578,92401,CA,San Bernardino,San Bernardino County,168484.0,241158.0,365709.0
19636,93261,CA,Richgrove,Tulare County,117310.0,152571.0,211805.0
19669,93432,CA,Creston,San Luis Obispo County,731592.0,839721.0,1071264.0
19750,92321,CA,Lake Arrowhead,San Bernardino County,204075.0,269755.0,440956.0
19783,92070,CA,Santa Ysabel,San Diego County,426396.0,492637.0,724240.0
19785,93518,CA,Caliente,Kern County,175505.0,205429.0,303785.0
19861,92398,CA,Yermo,San Bernardino County,80764.0,103572.0,157587.0
19862,96118,CA,Loyalton,Sierra County,167163.0,196432.0,270736.0
19865,94937,CA,Inverness,Marin County,937445.0,1117361.0,1565726.0
19947,96052,CA,Lewiston,Trinity County,267711.0,286319.0,358567.0
20068,95664,CA,Pilot Hill,El Dorado County,409925.0,488603.0,735563.0
20094,93040,CA,Fillmore,Ventura County,336062.0,437553.0,608349.0
20107,95645,CA,Woodland,Yolo County,238350.0,303837.0,444120.0
20382,95919,CA,Brownsville,Yuba County,177557.0,265336.0,380621.0
20392,93243,CA,Lebec,Kern County,209593.0,259652.0,357017.0
20397,93252,CA,Maricopa,Ventura County,129848.0,125165.0,138233.0
20408,96044,CA,Hornbrook,Siskiyou County,138180.0,159323.0,215393.0
20436,95374,CA,Stevinson,Merced County,313726.0,439753.0,714610.0
20452,93604,CA,Bass Lake,Madera County,544008.0,633012.0,1029804.0
20455,95547,CA,Hydesville,Humboldt County,401584.0,449679.0,638018.0
20519,93441,CA,Los Olivos,Santa Barbara County,950125.0,1004253.0,1565189.0
20524,94060,CA,Pescadero,San Mateo County,1078239.0,1253925.0,1289353.0
20623,95612,CA,Clarksburg,Yolo County,576916.0,685258.0,927899.0
20693,93925,CA,Chualar,Monterey County,350892.0,450449.0,640638.0
20699,92273,CA,El Centro,Imperial County,,,196057.0
20750,95313,CA,Crows Landing,Stanislaus County,462047.0,573785.0,869789.0
20759,96142,CA,Tahoma,El Dorado County,556594.0,668152.0,1090580.0
20816,96039,CA,Happy Camp,Siskiyou County,106661.0,128639.0,164784.0
20856,96107,CA,Coleville,Mono County,218991.0,241068.0,314289.0
20861,93544,CA,Llano,Los Angeles County,228219.0,294138.0,408508.0
20879,96023,CA,Dorris,Siskiyou County,80566.0,95274.0,127474.0
21113,95681,CA,Sheridan,Placer County,285389.0,392382.0,581325.0
21153,95635,CA,Greenwood,El Dorado County,326586.0,381166.0,519851.0
21165,94586,CA,Sunol,Alameda County,1161143.0,1337710.0,1839745.0
21202,92339,CA,Forest Falls,San Bernardino County,197900.0,248808.0,326294.0
21211,91963,CA,Potrero,San Diego County,308925.0,394070.0,537713.0
21213,95955,CA,Maxwell,Colusa County,175594.0,188647.0,250180.0
21242,95456,CA,Mendocino,Mendocino County,504246.0,541966.0,745101.0
21265,96141,CA,Homewood,Placer County,740545.0,914931.0,1453959.0
21282,94104,CA,San Francisco,San Francisco County,1817328.0,1683375.0,1612584.0
21337,95410,CA,Albion,Mendocino County,538240.0,577223.0,730726.0
21387,93653,CA,Raymond,Madera County,256494.0,342321.0,458997.0
21407,95629,CA,Volcano,Amador County,321148.0,371842.0,522854.0
21519,96062,CA,Millville,Shasta County,,394848.0,553721.0
21542,95914,CA,Bangor,Butte County,240838.0,301046.0,421865.0
21549,94933,CA,Lagunitas,Marin County,785798.0,839434.0,1080870.0
21551,96091,CA,Trinity Center,Trinity County,282893.0,286785.0,339574.0
21593,95064,CA,Santa Cruz,Santa Cruz County,636724.0,723501.0,1021518.0
21595,96069,CA,Oak Run,Shasta County,,304371.0,411582.0
21666,95636,CA,Somerset,El Dorado County,213581.0,267695.0,394674.0
21681,92333,CA,Fawnskin,San Bernardino County,264716.0,312926.0,532635.0
21709,95323,CA,Hickman,Stanislaus County,363735.0,460271.0,673887.0
21717,95433,CA,Sonoma,Sonoma County,516724.0,615455.0,770997.0
21726,95553,CA,Myers Flat,Humboldt County,,378550.0,474552.0
21741,93461,CA,Shandon,San Luis Obispo County,289189.0,342940.0,480273.0
21743,95528,CA,Carlotta,Humboldt County,313431.0,362415.0,463812.0
21760,96087,CA,Redding,Shasta County,244636.0,283402.0,384443.0
21812,96024,CA,Douglas City,Trinity County,294810.0,315072.0,406961.0
21818,95227,CA,Lockeford,San Joaquin County,494228.0,634095.0,995895.0
21862,95701,CA,Alta,Placer County,295070.0,367146.0,469247.0
21887,95017,CA,Davenport,Santa Cruz County,834131.0,1012602.0,1015032.0
22014,96109,CA,Doyle,Lassen County,112803.0,133311.0,175317.0
22024,95306,CA,Catheys Valley,Mariposa County,304642.0,358223.0,467883.0
22056,92282,CA,White Water,Riverside County,153469.0,237897.0,375962.0
22067,93664,CA,Shaver Lake,Fresno County,430865.0,458378.0,671174.0
22071,93266,CA,Stratford,Kings County,102100.0,154996.0,199850.0
22093,94514,CA,Byron,Contra Costa County,,,987483.0
22098,95225,CA,Valley Springs,Calaveras County,345162.0,384345.0,588664.0
22189,95439,CA,Fulton,Sonoma County,640962.0,768674.0,1060280.0
22192,96047,CA,Igo,Shasta County,237143.0,286924.0,359428.0
22228,94970,CA,Stinson Beach,Marin County,2239869.0,3142338.0,4335680.0
22273,96113,CA,Doyle,Lassen County,77728.0,82627.0,106847.0
22297,91008,CA,Bradbury,Los Angeles County,1356254.0,1363592.0,1628534.0
22409,92358,CA,Lytle Creek,San Bernardino County,215939.0,301386.0,393304.0
22415,93529,CA,June Lake,Mono County,446555.0,482897.0,631625.0
22445,93239,CA,Kettleman City,Kings County,97607.0,135520.0,201869.0
22462,95369,CA,Snelling,Merced County,219964.0,317356.0,485744.0
22475,92268,CA,Yucca Valley,San Bernardino County,227811.0,322933.0,526413.0
22487,92368,CA,Helendale,San Bernardino County,99753.0,144057.0,235604.0
22499,96038,CA,Grenada,Siskiyou County,158702.0,176148.0,227466.0
22525,95543,CA,Gasquet,Del Norte County,,,421326.0
22533,95651,CA,Lotus,El Dorado County,381063.0,452756.0,630429.0
22535,95686,CA,Thornton,San Joaquin County,302035.0,383743.0,617262.0
22549,95345,CA,Midpines,Mariposa County,248167.0,279674.0,354633.0
22578,96104,CA,Cedarville,Modoc County,134266.0,160258.0,198448.0
22582,92059,CA,Pala,San Diego County,633462.0,720342.0,1063531.0
22794,95007,CA,Boulder Creek,Santa Cruz County,565833.0,686811.0,902317.0
22829,95935,CA,Dobbins,Yuba County,216843.0,271893.0,393357.0
22830,93517,CA,Bridgeport,Mono County,283082.0,313557.0,412631.0
22851,93526,CA,Independence,Inyo County,,,279715.0
22874,95937,CA,Arbuckle,Colusa County,314220.0,376874.0,488442.0
22895,95615,CA,Courtland,Sacramento County,329730.0,434271.0,610206.0
22931,96148,CA,Tahoe Vista,Placer County,462965.0,583658.0,897830.0
22938,95728,CA,Soda Springs,Placer County,456393.0,561077.0,883465.0
22970,93962,CA,Salinas,Monterey County,537692.0,621528.0,827752.0
23047,95565,CA,Scotia,Humboldt County,,,334589.0
23066,95563,CA,Salyer,Trinity County,347597.0,370375.0,465967.0
23098,93668,CA,Tranquillity,Fresno County,157328.0,197975.0,277593.0
23107,94938,CA,Lagunitas,Marin County,830292.0,893766.0,1257284.0
23123,95497,CA,The Sea Ranch,Sonoma County,903275.0,994521.0,1737732.0
23125,93227,CA,Visalia,Tulare County,136038.0,185124.0,279906.0
23129,95659,CA,Nicolaus,Sutter County,518863.0,645389.0,705313.0
23149,95254,CA,Valley Springs,Calaveras County,356946.0,446653.0,653398.0
23157,96096,CA,Whitmore,Shasta County,,322621.0,416340.0
23168,91917,CA,Dulzura,San Diego County,399750.0,483265.0,685811.0
23175,94592,CA,Vallejo,Solano County,444070.0,584051.0,761414.0
23183,95303,CA,Ballico,Merced County,381755.0,474621.0,791979.0
23194,96120,CA,Kirkwood,Alpine County,364376.0,413439.0,523321.0
23280,95674,CA,Rio Oso,Sutter County,350742.0,507789.0,725221.0
23283,93673,CA,Kingsburg,Fresno County,92262.0,159101.0,212576.0
23315,96058,CA,Macdoel,Siskiyou County,73539.0,81007.0,100967.0
23344,95943,CA,Glenn,Glenn County,441570.0,546729.0,779722.0
23391,95251,CA,Vallecito,Calaveras County,,309881.0,379135.0
23397,95668,CA,Pleasant Grove,Sutter County,564009.0,632143.0,778284.0
23408,95549,CA,Kneeland,Humboldt County,,505040.0,728883.0
23535,92385,CA,Lake Arrowhead,San Bernardino County,281179.0,330821.0,496828.0
23537,91210,CA,Glendale,Los Angeles County,,,1184410.0
23545,95230,CA,Farmington,San Joaquin County,385330.0,505879.0,754569.0
23624,91934,CA,Jacumba,San Diego County,150318.0,182999.0,284318.0
23630,93201,CA,Alpaugh,Tulare County,155767.0,143211.0,203086.0
23681,92347,CA,Hinkley,San Bernardino County,111404.0,73074.0,91806.0
23695,95979,CA,Stonyford,Colusa County,140544.0,163264.0,228659.0
23706,96059,CA,Manton,Tehama County,218579.0,278105.0,348669.0
23712,92258,CA,Desert Hot Springs,Riverside County,137535.0,189952.0,289680.0
23721,95957,CA,Meridian,Sutter County,213510.0,357671.0,531935.0
23723,93608,CA,Cantua Creek,Fresno County,,,198147.0
23749,96106,CA,Clio,Plumas County,432811.0,483896.0,611314.0
23767,92378,CA,Lake Arrowhead,San Bernardino County,175005.0,231647.0,369495.0
23801,94567,CA,Pope Valley,Napa County,387396.0,365545.0,439130.0
23829,95317,CA,El Nido,Merced County,,,761055.0
23855,93932,CA,Lockwood,Monterey County,,,806089.0
23857,95041,CA,Felton,Santa Cruz County,545904.0,681660.0,972754.0
23903,92305,CA,Angelus Oaks,San Bernardino County,225698.0,281642.0,379001.0
23921,93531,CA,Keene,Kern County,359636.0,393058.0,546036.0
23971,94946,CA,Nicasio,Marin County,1444027.0,1557796.0,2461954.0
23991,95922,CA,Camptonville,Yuba County,201561.0,284207.0,354184.0
24004,95224,CA,Murphys,Calaveras County,,320664.0,466880.0
24013,93218,CA,Ducor,Tulare County,123885.0,167016.0,209223.0
24019,96048,CA,Junction City,Trinity County,327029.0,346296.0,441610.0
24020,95526,CA,Bridgeville,Humboldt County,310986.0,363869.0,467949.0
24067,95248,CA,Mokelumne Hill,Calaveras County,207631.0,245948.0,354866.0
24108,93255,CA,Onyx,Kern County,114430.0,143669.0,196761.0
24113,95335,CA,Long Barn,Tuolumne County,,,360246.0
24185,95697,CA,Yolo,Yolo County,,,459927.0
24244,95983,CA,Taylorsville,Plumas County,207110.0,221544.0,284044.0
24245,96084,CA,Round Mountain,Shasta County,,255273.0,331366.0
24277,94963,CA,San Geronimo,Marin County,1080352.0,1129768.0,1593593.0
24315,95450,CA,Jenner,Sonoma County,609580.0,645158.0,981755.0
24323,90743,CA,Seal Beach,Orange County,,,2026063.0
24340,93621,CA,Dunlap,Fresno County,200170.0,247113.0,399972.0
24393,95424,CA,Clearlake,Lake County,142559.0,208600.0,284233.0
24444,95830,CA,Elk Grove,Sacramento County,625208.0,746179.0,1052570.0
24470,95459,CA,Manchester,Mendocino County,513913.0,530322.0,695999.0
24497,92327,CA,Daggett,San Bernardino County,76181.0,99670.0,156847.0
24506,96006,CA,Adin,Modoc County,126926.0,141905.0,166549.0
24566,92322,CA,Crestline,San Bernardino County,153666.0,214600.0,328826.0
24674,92341,CA,Green Valley Lake,San Bernardino County,173011.0,218168.0,363109.0
24707,95527,CA,Burnt Ranch,Trinity County,,342786.0,427750.0
24727,95257,CA,Wilseyville,Calaveras County,208344.0,221275.0,340244.0
24767,96009,CA,Bieber,Lassen County,113563.0,124154.0,164948.0
24801,96065,CA,Montgomery Creek,Shasta County,,215072.0,298299.0
24804,95936,CA,Downieville,Sierra County,230272.0,246504.0,324635.0
24865,95552,CA,Mad River,Trinity County,,310129.0,399694.0
24907,95941,CA,Forbestown,Butte County,173407.0,226191.0,288799.0
24908,96050,CA,Klamath River,Siskiyou County,181762.0,207850.0,255527.0
24968,93541,CA,Lee Vining,Mono County,268615.0,318555.0,422854.0
24975,96105,CA,Chilcoot,Plumas County,223002.0,234848.0,312807.0
25076,95956,CA,Meadow Valley,Plumas County,231133.0,240232.0,302714.0
25086,91759,CA,Lytle Creek,San Bernardino County,356607.0,443106.0,536123.0
25104,94971,CA,Tomales,Marin County,736618.0,830503.0,1126917.0
25114,95554,CA,Myers Flat,Humboldt County,,,464471.0
25156,96125,CA,Sierra City,Sierra County,235293.0,250619.0,335595.0
25167,96128,CA,Standish,Lassen County,209989.0,223997.0,285953.0
25171,93665,CA,Dos Palos,Merced County,125905.0,196858.0,291431.0
25187,93244,CA,Lemon Cove,Tulare County,201548.0,267421.0,404982.0
25189,95970,CA,Colusa,Colusa County,222235.0,266893.0,362288.0
25191,95558,CA,Ferndale,Humboldt County,,,636465.0
25195,95714,CA,Dutch Flat,Placer County,266068.0,331783.0,429496.0
25248,93641,CA,Miramonte,Fresno County,164067.0,198228.0,292968.0
25334,93450,CA,San Ardo,Monterey County,,360614.0,471205.0
25337,96033,CA,French Gulch,Shasta County,181257.0,213104.0,256886.0
25393,96090,CA,Tehama,Tehama County,,,211243.0
25400,96075,CA,Paynes Creek,Tehama County,90359.0,112034.0,161452.0
25445,92060,CA,Palomar Mountain,San Diego County,284482.0,339253.0,535753.0
25526,93207,CA,California Hot Springs,Tulare County,,198172.0,221532.0
25566,92239,CA,Desert Center,Riverside County,,,232042.0
25590,96016,CA,Cassel,Shasta County,,207401.0,288768.0
25611,95419,CA,Occidental,Sonoma County,399795.0,384684.0,472167.0
25617,96121,CA,Milford,Lassen County,208652.0,229166.0,296575.0
25628,96037,CA,Etna,Siskiyou County,197184.0,221820.0,281845.0
25629,95930,CA,Clipper Mills,Butte County,155058.0,220789.0,272354.0
25633,95233,CA,Murphys,Calaveras County,263832.0,331079.0,471896.0
25645,95675,CA,River Pines,Amador County,124042.0,143621.0,218048.0
25679,96124,CA,Calpine,Sierra County,257067.0,279220.0,375078.0
25696,94929,CA,Dillon Beach,Marin County,892007.0,1025306.0,1487168.0
25787,95913,CA,Willows,Glenn County,,,368592.0
25843,95232,CA,Glencoe,Calaveras County,,251208.0,362101.0
25859,93224,CA,Fellows,Kern County,109089.0,121523.0,171238.0
25878,95140,CA,East Foothills,Santa Clara County,1215726.0,1478612.0,2061547.0
26000,93645,CA,O Neals,Madera County,,345767.0,504350.0
26030,95443,CA,Lucerne,Lake County,172057.0,220574.0,294982.0
26044,92066,CA,Ranchita,San Diego County,262036.0,317841.0,454485.0
26056,96015,CA,Canby,Modoc County,115731.0,133587.0,156377.0
26057,95601,CA,Amador City,Amador County,321533.0,374476.0,491282.0
26078,96086,CA,Seiad Valley,Siskiyou County,172454.0,195672.0,239130.0
26089,95637,CA,Guinda,Yolo County,,,704700.0
26109,96054,CA,Lookout,Modoc County,134409.0,164668.0,211747.0
26119,96117,CA,Litchfield,Lassen County,200989.0,213237.0,275247.0
26194,95639,CA,Clarksburg,Yolo County,,,438153.0
26197,93669,CA,North Fork,Madera County,209905.0,261853.0,375598.0
26220,93549,CA,Olancha,Inyo County,,,183056.0
26238,95974,CA,Richvale,Butte County,,,440748.0
26319,95717,CA,Gold Run,Placer County,,,463059.0
26347,95978,CA,Stirling City,Butte County,91634.0,165588.0,202950.0
26370,95511,CA,Alderpoint,Humboldt County,,,298829.0
26389,93226,CA,Glennville,Kern County,,,277621.0
26415,95934,CA,Greenville,Plumas County,,194921.0,249643.0
26438,96126,CA,Sierraville,Sierra County,278950.0,335177.0,444368.0
26579,95920,CA,Butte City,Glenn County,,,500944.0
26593,93628,CA,Hume,Fresno County,179590.0,217053.0,331277.0
26613,95607,CA,Capay,Yolo County,,,906334.0
26636,95925,CA,Forbestown,Butte County,202655.0,263607.0,339142.0
26697,95412,CA,Annapolis,Sonoma County,751947.0,878349.0,955486.0
26743,95837,CA,Nicolaus,Sutter County,633100.0,729528.0,926390.0
26748,95939,CA,Elk Creek,Glenn County,,,379823.0
26770,95950,CA,Grimes,Colusa County,,195613.0,274077.0
26848,95698,CA,Woodland,Yolo County,,,953137.0
26878,91948,CA,Mount Laguna,San Diego County,,,310832.0
26903,95923,CA,Canyon Dam,Plumas County,,267283.0,379109.0
26925,93954,CA,San Lucas,Monterey County,,,456228.0
26938,94940,CA,Marshall,Marin County,,,1400096.0
26996,96071,CA,Old Station,Shasta County,,177809.0,267160.0
27013,96129,CA,Beckwourth,Plumas County,254376.0,247743.0,331974.0
27032,95493,CA,Upper Lake,Lake County,,,513749.0
27043,93634,CA,Lakeshore,Fresno County,217435.0,283284.0,388447.0
27075,95735,CA,Twin Bridges,El Dorado County,244988.0,274672.0,424556.0
27100,95720,CA,Kyburz,El Dorado County,216905.0,252995.0,410111.0
27101,93528,CA,Johannesburg,Kern County,,,107289.0
27134,93623,CA,Fish Camp,Mariposa County,367266.0,387985.0,489882.0
27228,95646,CA,Kirkwood,Alpine County,531071.0,532132.0,670054.0
27230,93605,CA,Big Creek,Fresno County,379164.0,419403.0,587520.0
27255,96108,CA,New Pine Creek,Modoc County,,172989.0,215938.0
27257,96115,CA,Lake City,Modoc County,178374.0,211105.0,270817.0
27293,93554,CA,Randsburg,Kern County,,,108526.0
27302,95715,CA,Soda Springs,Placer County,248203.0,335793.0,377529.0
27309,95981,CA,Strawberry Valley,Plumas County,204688.0,271101.0,315419.0
27310,95724,CA,Soda Springs,Placer County,580758.0,663314.0,1129584.0
27328,95375,CA,Strawberry,Tuolumne County,,,426858.0
27333,95721,CA,Twin Bridges,El Dorado County,262501.0,281592.0,436267.0
